{
 "type": "FeatureCollection",
 "features": [
  {
   "type": "Feature",
   "properties": {
    "t_hours": 0,
    "hour_index": 0,
    "level": "p10",
    "valid_time_utc": "2025-06-12T06:30:00+00:00"
   },
   "geometry": {
    "type": "Polygon",
    "coordinates": [
     [
      [
       75.72499999999961,
       9.355763715869813
      ],
      [
       75.72303408055677,
       9.350000000000062
      ],
      [
       75.72499999999961,
       9.347418400369826
      ],
      [
       75.72708767726132,
       9.350000000000062
      ],
      [
       75.72499999999961,
       9.355763715869813
      ]
     ]
    ]
   }
  },
  {
   "type": "Feature",
   "properties": {
    "t_hours": 0,
    "hour_index": 0,
    "level": "p50",
    "valid_time_utc": "2025-06-12T06:30:00+00:00"
   },
   "geometry": {
    "type": "MultiPolygon",
    "coordinates": [
     [
      [
       [
        75.73963477577529,
        9.350000000000062
       ],
       [
        75.72499999999961,
        9.359166645281025
       ],
       [
        75.718577223675,
        9.350000000000062
       ],
       [
        75.71996970634544,
        9.345000000000061
       ],
       [
        75.7349999999996,
        9.34000000000006
       ],
       [
        75.73963477577529,
        9.350000000000062
       ]
      ]
     ],
     [
      [
       [
        75.7399999999996,
        9.371355762312229
       ],
       [
        75.73664950398823,
        9.370000000000065
       ],
       [
        75.7337080903239,
        9.360000000000063
       ],
       [
        75.7399999999996,
        9.350858575189703
       ],
       [
        75.7399999999996,
        9.371355762312229
       ]
      ]
     ]
    ]
   }
  },
  {
   "type": "Feature",
   "properties": {
    "t_hours": 0,
    "hour_index": 0,
    "level": "p90",
    "valid_time_utc": "2025-06-12T06:30:00+00:00"
   },
   "geometry": {
    "type": "Polygon",
    "coordinates": [
     [
      [
       75.7399999999996,
       9.376031962214642
      ],
      [
       75.7299999999996,
       9.37953617925196
      ],
      [
       75.70913815736333,
       9.360000000000063
      ],
      [
       75.70905732674598,
       9.355000000000063
      ],
      [
       75.71999999999962,
       9.34000000000006
      ],
      [
       75.72510353906003,
       9.34000000000006
      ],
      [
       75.7299999999996,
       9.334542728031867
      ],
      [
       75.7469448545998,
       9.350000000000062
      ],
      [
       75.7399999999996,
       9.376031962214642
      ]
     ]
    ]
   }
  },
  {
   "type": "Feature",
   "properties": {
    "t_hours": -1,
    "hour_index": 1,
    "level": "p50",
    "valid_time_utc": "2025-06-12T05:30:00+00:00"
   },
   "geometry": {
    "type": "MultiPolygon",
    "coordinates": [
     [
      [
       [
        75.72499999999961,
        9.359014494471067
       ],
       [
        75.71561822234585,
        9.355000000000063
       ],
       [
        75.71589562417832,
        9.350000000000062
       ],
       [
        75.72334484190087,
        9.34000000000006
       ],
       [
        75.7299999999996,
        9.3389319980304
       ],
       [
        75.7299999999996,
        9.342717706258542
       ],
       [
        75.72569576781761,
        9.345000000000061
       ],
       [
        75.7299999999996,
        9.347145803253444
       ],
       [
        75.7349999999996,
        9.344365766792889
       ],
       [
        75.73633709152513,
        9.350000000000062
       ],
       [
        75.72499999999961,
        9.359014494471067
       ]
      ]
     ],
     [
      [
       [
        75.7349999999996,
        9.371306933791818
       ],
       [
        75.73005482918593,
        9.365000000000064
       ],
       [
        75.7349999999996,
        9.355835462522723
       ],
       [
        75.73851196947236,
        9.360000000000063
       ],
       [
        75.7349999999996,
        9.371306933791818
       ]
      ]
     ]
    ]
   }
  },
  {
   "type": "Feature",
   "properties": {
    "t_hours": -1,
    "hour_index": 1,
    "level": "p90",
    "valid_time_utc": "2025-06-12T05:30:00+00:00"
   },
   "geometry": {
    "type": "Polygon",
    "coordinates": [
     [
      [
       75.7299999999996,
       9.380539857660967
      ],
      [
       75.71760394474425,
       9.375000000000066
      ],
      [
       75.70999999999962,
       9.365759115041197
      ],
      [
       75.70499999999963,
       9.366212276556796
      ],
      [
       75.70253892447286,
       9.360000000000063
      ],
      [
       75.70499999999963,
       9.354036422642388
      ],
      [
       75.70999999999962,
       9.355456418902032
      ],
      [
       75.70840962046556,
       9.350000000000062
      ],
      [
       75.71189537414277,
       9.345000000000061
      ],
      [
       75.72499999999961,
       9.3365241828029
      ],
      [
       75.7299999999996,
       9.336781523300921
      ],
      [
       75.73893970646763,
       9.345000000000061
      ],
      [
       75.74271203222678,
       9.355000000000063
      ],
      [
       75.73655755039078,
       9.375000000000066
      ],
      [
       75.7299999999996,
       9.380539857660967
      ]
     ]
    ]
   }
  },
  {
   "type": "Feature",
   "properties": {
    "t_hours": -2,
    "hour_index": 2,
    "level": "p50",
    "valid_time_utc": "2025-06-12T04:30:00+00:00"
   },
   "geometry": {
    "type": "MultiPolygon",
    "coordinates": [
     [
      [
       [
        75.70999999999962,
        9.365368919180142
       ],
       [
        75.70721432819911,
        9.350000000000062
       ],
       [
        75.71999999999962,
        9.341238675688157
       ],
       [
        75.73064134262455,
        9.345000000000061
       ],
       [
        75.70999999999962,
        9.365368919180142
       ]
      ]
     ],
     [
      [
       [
        75.7299999999996,
        9.367467676492247
       ],
       [
        75.7241618001853,
        9.365000000000064
       ],
       [
        75.72442504795613,
        9.360000000000063
       ],
       [
        75.7299999999996,
        9.356925514813204
       ],
       [
        75.732740221983,
        9.360000000000063
       ],
       [
        75.7299999999996,
        9.367467676492247
       ]
      ]
     ]
    ]
   }
  },
  {
   "type": "Feature",
   "properties": {
    "t_hours": -2,
    "hour_index": 2,
    "level": "p90",
    "valid_time_utc": "2025-06-12T04:30:00+00:00"
   },
   "geometry": {
    "type": "Polygon",
    "coordinates": [
     [
      [
       75.72499999999961,
       9.381862482317723
      ],
      [
       75.70999999999962,
       9.375000000000066
      ],
      [
       75.69729542601877,
       9.360000000000063
      ],
      [
       75.70499999999963,
       9.347045374882423
      ],
      [
       75.71999999999962,
       9.335964510494843
      ],
      [
       75.73584504183171,
       9.345000000000061
      ],
      [
       75.73368391016338,
       9.350000000000062
      ],
      [
       75.73835629042814,
       9.355000000000063
      ],
      [
       75.73598773238045,
       9.370000000000065
      ],
      [
       75.72499999999961,
       9.381862482317723
      ]
     ]
    ]
   }
  },
  {
   "type": "Feature",
   "properties": {
    "t_hours": -3,
    "hour_index": 3,
    "level": "p10",
    "valid_time_utc": "2025-06-12T03:30:00+00:00"
   },
   "geometry": {
    "type": "Polygon",
    "coordinates": [
     [
      [
       75.71499999999962,
       9.357723414792604
      ],
      [
       75.7125168980945,
       9.355000000000063
      ],
      [
       75.71499999999962,
       9.351556044296336
      ],
      [
       75.71826216439511,
       9.355000000000063
      ],
      [
       75.71499999999962,
       9.357723414792604
      ]
     ]
    ]
   }
  },
  {
   "type": "Feature",
   "properties": {
    "t_hours": -3,
    "hour_index": 3,
    "level": "p50",
    "valid_time_utc": "2025-06-12T03:30:00+00:00"
   },
   "geometry": {
    "type": "MultiPolygon",
    "coordinates": [
     [
      [
       [
        75.71499999999962,
        9.375902989322059
       ],
       [
        75.70760243814544,
        9.370000000000065
       ],
       [
        75.71232075629857,
        9.365000000000064
       ],
       [
        75.71239632455175,
        9.360000000000063
       ],
       [
        75.70193738610527,
        9.350000000000062
       ],
       [
        75.71499999999962,
        9.342839699427259
       ],
       [
        75.72499999999961,
        9.343999782563714
       ],
       [
        75.72499999999961,
        9.347494619647339
       ],
       [
        75.71990138530539,
        9.350000000000062
       ],
       [
        75.72499999999961,
        9.358785026885243
       ],
       [
        75.7307248801292,
        9.360000000000063
       ],
       [
        75.72499999999961,
        9.369127427507598
       ],
       [
        75.71999999999962,
        9.365234190629488
       ],
       [
        75.71499999999962,
        9.375902989322059
       ]
      ]
     ],
     [
      [
       [
        75.70719140713837,
        9.360000000000063
       ],
       [
        75.69999999999963,
        9.362714267758118
       ],
       [
        75.69800790421436,
        9.360000000000063
       ],
       [
        75.70499999999963,
        9.35739255748955
       ],
       [
        75.70719140713837,
        9.360000000000063
       ]
      ]
     ]
    ]
   }
  },
  {
   "type": "Feature",
   "properties": {
    "t_hours": -3,
    "hour_index": 3,
    "level": "p90",
    "valid_time_utc": "2025-06-12T03:30:00+00:00"
   },
   "geometry": {
    "type": "Polygon",
    "coordinates": [
     [
      [
       75.71999999999962,
       9.38525119886019
      ],
      [
       75.71499999999962,
       9.379656780613567
      ],
      [
       75.70999999999962,
       9.382865488874751
      ],
      [
       75.69636883216432,
       9.370000000000065
      ],
      [
       75.692263291791,
       9.360000000000063
      ],
      [
       75.69999999999963,
       9.341988259357773
      ],
      [
       75.70499999999963,
       9.34286155311644
      ],
      [
       75.71499999999962,
       9.335417095628397
      ],
      [
       75.71801552260503,
       9.34000000000006
      ],
      [
       75.72499999999961,
       9.340372016537051
      ],
      [
       75.73199063901063,
       9.345000000000061
      ],
      [
       75.72869881196857,
       9.350000000000062
      ],
      [
       75.73485738502099,
       9.355000000000063
      ],
      [
       75.7299999999996,
       9.375000000000066
      ],
      [
       75.71999999999962,
       9.38525119886019
      ]
     ]
    ]
   }
  },
  {
   "type": "Feature",
   "properties": {
    "t_hours": -4,
    "hour_index": 4,
    "level": "p10",
    "valid_time_utc": "2025-06-12T02:30:00+00:00"
   },
   "geometry": {
    "type": "Polygon",
    "coordinates": [
     [
      [
       75.70499999999963,
       9.360000000000063
      ],
      [
       75.69999999999963,
       9.355560662169706
      ],
      [
       75.69999999999963,
       9.350134234403768
      ],
      [
       75.70774313826102,
       9.355000000000063
      ],
      [
       75.70499999999963,
       9.360000000000063
      ]
     ]
    ]
   }
  },
  {
   "type": "Feature",
   "properties": {
    "t_hours": -4,
    "hour_index": 4,
    "level": "p50",
    "valid_time_utc": "2025-06-12T02:30:00+00:00"
   },
   "geometry": {
    "type": "Polygon",
    "coordinates": [
     [
      [
       75.70999999999962,
       9.375641507786801
      ],
      [
       75.69933998112562,
       9.370000000000065
      ],
      [
       75.69999999999963,
       9.367814690531217
      ],
      [
       75.70499999999963,
       9.369636051156196
      ],
      [
       75.7065044838905,
       9.365000000000064
      ],
      [
       75.69138791604783,
       9.360000000000063
      ],
      [
       75.69999999999963,
       9.346834160642423
      ],
      [
       75.70999999999962,
       9.344171465013073
      ],
      [
       75.71999999999962,
       9.349006075273172
      ],
      [
       75.71805917697112,
       9.355000000000063
      ],
      [
       75.723474074628,
       9.365000000000064
      ],
      [
       75.71999999999962,
       9.36900949120709
      ],
      [
       75.71448944749388,
       9.365000000000064
      ],
      [
       75.70999999999962,
       9.375641507786801
      ]
     ]
    ]
   }
  },
  {
   "type": "Feature",
   "properties": {
    "t_hours": -4,
    "hour_index": 4,
    "level": "p90",
    "valid_time_utc": "2025-06-12T02:30:00+00:00"
   },
   "geometry": {
    "type": "Polygon",
    "coordinates": [
     [
      [
       75.71999999999962,
       9.381925198883764
      ],
      [
       75.70999999999962,
       9.383588284038382
      ],
      [
       75.68999999999964,
       9.375000000000066
      ],
      [
       75.68599895581758,
       9.365000000000064
      ],
      [
       75.69055068724425,
       9.350000000000062
      ],
      [
       75.71499999999962,
       9.333214263555021
      ],
      [
       75.71695770037691,
       9.33500000000006
      ],
      [
       75.71263958254987,
       9.34000000000006
      ],
      [
       75.72714756587511,
       9.345000000000061
      ],
      [
       75.73057884562037,
       9.365000000000064
      ],
      [
       75.72425806156332,
       9.370000000000065
      ],
      [
       75.71999999999962,
       9.381925198883764
      ]
     ]
    ]
   }
  },
  {
   "type": "Feature",
   "properties": {
    "t_hours": -5,
    "hour_index": 5,
    "level": "p10",
    "valid_time_utc": "2025-06-12T01:30:00+00:00"
   },
   "geometry": {
    "type": "Polygon",
    "coordinates": [
     [
      [
       75.69999999999963,
       9.35542779533764
      ],
      [
       75.69499999999964,
       9.351071593901748
      ],
      [
       75.69499999999964,
       9.349151609897136
      ],
      [
       75.70013286665095,
       9.350000000000062
      ],
      [
       75.69999999999963,
       9.35542779533764
      ]
     ]
    ]
   }
  },
  {
   "type": "Feature",
   "properties": {
    "t_hours": -5,
    "hour_index": 5,
    "level": "p50",
    "valid_time_utc": "2025-06-12T01:30:00+00:00"
   },
   "geometry": {
    "type": "MultiPolygon",
    "coordinates": [
     [
      [
       [
        75.71715177219602,
        9.365000000000064
       ],
       [
        75.69999999999963,
        9.374820667147752
       ],
       [
        75.69390484114163,
        9.365000000000064
       ],
       [
        75.69499999999964,
        9.361614964161978
       ],
       [
        75.70130043421618,
        9.360000000000063
       ],
       [
        75.69033496332823,
        9.355000000000063
       ],
       [
        75.69499999999964,
        9.343992978055331
       ],
       [
        75.69999999999963,
        9.347064548584251
       ],
       [
        75.70499999999963,
        9.342062917971598
       ],
       [
        75.71499999999962,
        9.353016536467615
       ],
       [
        75.71715177219602,
        9.365000000000064
       ]
      ]
     ],
     [
      [
       [
        75.68999999999964,
        9.362542408268615
       ],
       [
        75.6857288379583,
        9.360000000000063
       ],
       [
        75.68999999999964,
        9.355200305142342
       ],
       [
        75.6944273588685,
        9.360000000000063
       ],
       [
        75.68999999999964,
        9.362542408268615
       ]
      ]
     ]
    ]
   }
  },
  {
   "type": "Feature",
   "properties": {
    "t_hours": -5,
    "hour_index": 5,
    "level": "p90",
    "valid_time_utc": "2025-06-12T01:30:00+00:00"
   },
   "geometry": {
    "type": "Polygon",
    "coordinates": [
     [
      [
       75.71499999999962,
       9.385772331531653
      ],
      [
       75.70999999999962,
       9.379207949653425
      ],
      [
       75.69999999999963,
       9.388179341477764
      ],
      [
       75.69887376118525,
       9.380000000000067
      ],
      [
       75.68999999999964,
       9.378586038610829
      ],
      [
       75.68135168984614,
       9.370000000000065
      ],
      [
       75.68125505327566,
       9.355000000000063
      ],
      [
       75.68999999999964,
       9.350482430653829
      ],
      [
       75.69499999999964,
       9.338062395866649
      ],
      [
       75.69999999999963,
       9.340225741725622
      ],
      [
       75.70499999999963,
       9.332824225674667
      ],
      [
       75.70985144468807,
       9.34000000000006
      ],
      [
       75.72400692410817,
       9.345000000000061
      ],
      [
       75.72433893695236,
       9.365000000000064
      ],
      [
       75.71499999999962,
       9.385772331531653
      ]
     ]
    ]
   }
  },
  {
   "type": "Feature",
   "properties": {
    "t_hours": -6,
    "hour_index": 6,
    "level": "p50",
    "valid_time_utc": "2025-06-12T00:30:00+00:00"
   },
   "geometry": {
    "type": "Polygon",
    "coordinates": [
     [
      [
       75.69999999999963,
       9.375262961778388
      ],
      [
       75.69261722341305,
       9.375000000000066
      ],
      [
       75.69579338296347,
       9.370000000000065
      ],
      [
       75.68999999999964,
       9.360800352809163
      ],
      [
       75.68499999999965,
       9.363964155041419
      ],
      [
       75.67999999999965,
       9.360000000000063
      ],
      [
       75.68999999999964,
       9.34553797545298
      ],
      [
       75.69999999999963,
       9.339758792364039
      ],
      [
       75.70407419601446,
       9.345000000000061
      ],
      [
       75.69987518550462,
       9.350000000000062
      ],
      [
       75.69810339256804,
       9.355000000000063
      ],
      [
       75.69999999999963,
       9.360388382345263
      ],
      [
       75.70016704623418,
       9.350000000000062
      ],
      [
       75.70499999999963,
       9.34593210227311
      ],
      [
       75.71043717746312,
       9.365000000000064
      ],
      [
       75.70999999999962,
       9.369102956559217
      ],
      [
       75.70499999999963,
       9.368233823722349
      ],
      [
       75.69999999999963,
       9.375262961778388
      ]
     ]
    ]
   }
  },
  {
   "type": "Feature",
   "properties": {
    "t_hours": -6,
    "hour_index": 6,
    "level": "p90",
    "valid_time_utc": "2025-06-12T00:30:00+00:00"
   },
   "geometry": {
    "type": "Polygon",
    "coordinates": [
     [
      [
       75.70999999999962,
       9.379588728503833
      ],
      [
       75.69499999999964,
       9.382755425369556
      ],
      [
       75.69392638043313,
       9.380000000000067
      ],
      [
       75.68499999999965,
       9.37854525081599
      ],
      [
       75.67600972642242,
       9.370000000000065
      ],
      [
       75.67413454526454,
       9.360000000000063
      ],
      [
       75.68083516394651,
       9.350000000000062
      ],
      [
       75.68058544433313,
       9.345000000000061
      ],
      [
       75.69999999999963,
       9.332329119709364
      ],
      [
       75.70999999999962,
       9.342331952849815
      ],
      [
       75.72166873950839,
       9.345000000000061
      ],
      [
       75.71417824196095,
       9.355000000000063
      ],
      [
       75.71999999999962,
       9.354577444900508
      ],
      [
       75.72203681398041,
       9.360000000000063
      ],
      [
       75.71499999999962,
       9.36456634784821
      ],
      [
       75.70999999999962,
       9.379588728503833
      ]
     ]
    ]
   }
  },
  {
   "type": "Feature",
   "properties": {
    "t_hours": -7,
    "hour_index": 7,
    "level": "p10",
    "valid_time_utc": "2025-06-11T23:30:00+00:00"
   },
   "geometry": {
    "type": "MultiPolygon",
    "coordinates": [
     [
      [
       [
        75.68499999999965,
        9.360245002724039
       ],
       [
        75.68273216888801,
        9.355000000000063
       ],
       [
        75.68499999999965,
        9.35186271654311
       ],
       [
        75.6860124218622,
        9.355000000000063
       ],
       [
        75.68499999999965,
        9.360245002724039
       ]
      ]
     ],
     [
      [
       [
        75.68999999999964,
        9.34826063796123
       ],
       [
        75.68767624565895,
        9.345000000000061
       ],
       [
        75.69489449396649,
        9.345000000000061
       ],
       [
        75.68999999999964,
        9.34826063796123
       ]
      ]
     ]
    ]
   }
  },
  {
   "type": "Feature",
   "properties": {
    "t_hours": -7,
    "hour_index": 7,
    "level": "p50",
    "valid_time_utc": "2025-06-11T23:30:00+00:00"
   },
   "geometry": {
    "type": "Polygon",
    "coordinates": [
     [
      [
       75.69499999999964,
       9.372181029644807
      ],
      [
       75.68499999999965,
       9.374353446069572
      ],
      [
       75.68499999999965,
       9.366587206596732
      ],
      [
       75.6914487949993,
       9.365000000000064
      ],
      [
       75.68999999999964,
       9.361268471946811
      ],
      [
       75.68499999999965,
       9.364743933588365
      ],
      [
       75.67499999999966,
       9.360000000000063
      ],
      [
       75.67503469983096,
       9.355000000000063
      ],
      [
       75.68291405920712,
       9.345000000000061
      ],
      [
       75.68999999999964,
       9.341529803365697
      ],
      [
       75.69894869920645,
       9.345000000000061
      ],
      [
       75.7055938736566,
       9.360000000000063
      ],
      [
       75.69499999999964,
       9.372181029644807
      ]
     ]
    ]
   }
  },
  {
   "type": "Feature",
   "properties": {
    "t_hours": -7,
    "hour_index": 7,
    "level": "p90",
    "valid_time_utc": "2025-06-11T23:30:00+00:00"
   },
   "geometry": {
    "type": "Polygon",
    "coordinates": [
     [
      [
       75.70999999999962,
       9.34433842727656
      ],
      [
       75.70811322448998,
       9.34000000000006
      ],
      [
       75.70999999999962,
       9.338693249542798
      ],
      [
       75.71233709186515,
       9.34000000000006
      ],
      [
       75.70999999999962,
       9.34433842727656
      ]
     ]
    ]
   }
  },
  {
   "type": "Feature",
   "properties": {
    "t_hours": -8,
    "hour_index": 8,
    "level": "p10",
    "valid_time_utc": "2025-06-11T22:30:00+00:00"
   },
   "geometry": {
    "type": "Polygon",
    "coordinates": [
     [
      [
       75.68630507187534,
       9.345000000000061
      ],
      [
       75.67999999999965,
       9.346155809843964
      ],
      [
       75.67830798556533,
       9.345000000000061
      ],
      [
       75.68630507187534,
       9.345000000000061
      ]
     ]
    ]
   }
  },
  {
   "type": "Feature",
   "properties": {
    "t_hours": -8,
    "hour_index": 8,
    "level": "p50",
    "valid_time_utc": "2025-06-11T22:30:00+00:00"
   },
   "geometry": {
    "type": "MultiPolygon",
    "coordinates": [
     [
      [
       [
        75.68499999999965,
        9.375312106914881
       ],
       [
        75.67022450469399,
        9.360000000000063
       ],
       [
        75.6729621604326,
        9.345000000000061
       ],
       [
        75.67999999999965,
        9.34046932015454
       ],
       [
        75.68999999999964,
        9.342167912423575
       ],
       [
        75.69686446555485,
        9.350000000000062
       ],
       [
        75.68999999999964,
        9.355000000000063
       ],
       [
        75.69958979661745,
        9.360000000000063
       ],
       [
        75.68499999999965,
        9.375312106914881
       ]
      ]
     ],
     [
      [
       [
        75.68999999999964,
        9.355000000000063
       ],
       [
        75.68691364008663,
        9.350000000000062
       ],
       [
        75.68151665529916,
        9.350000000000062
       ],
       [
        75.68499999999965,
        9.352709120193296
       ],
       [
        75.68999999999964,
        9.355000000000063
       ]
      ]
     ]
    ]
   }
  },
  {
   "type": "Feature",
   "properties": {
    "t_hours": -8,
    "hour_index": 8,
    "level": "p90",
    "valid_time_utc": "2025-06-11T22:30:00+00:00"
   },
   "geometry": {
    "type": "MultiPolygon",
    "coordinates": [
     [
      [
       [
        75.68499999999965,
        9.388896461651537
       ],
       [
        75.68198062924925,
        9.385000000000067
       ],
       [
        75.68384898546358,
        9.380000000000067
       ],
       [
        75.67999999999965,
        9.375723690568627
       ],
       [
        75.67499999999966,
        9.37943281982006
       ],
       [
        75.66999999999966,
        9.378259330031073
       ],
       [
        75.66081160737654,
        9.365000000000064
       ],
       [
        75.66499999999967,
        9.341915776563598
       ],
       [
        75.68499999999965,
        9.33441397326367
       ],
       [
        75.69987808994775,
        9.34000000000006
       ],
       [
        75.70827776508061,
        9.355000000000063
       ],
       [
        75.70499999999963,
        9.357176827778677
       ],
       [
        75.70269119588258,
        9.370000000000065
       ],
       [
        75.68665323904999,
        9.380000000000067
       ],
       [
        75.68854628552967,
        9.385000000000067
       ],
       [
        75.68499999999965,
        9.388896461651537
       ]
      ]
     ],
     [
      [
       [
        75.70499999999963,
        9.343478383615986
       ],
       [
        75.7002498101193,
        9.34000000000006
       ],
       [
        75.70499999999963,
        9.33815675294806
       ],
       [
        75.70499999999963,
        9.343478383615986
       ]
      ]
     ]
    ]
   }
  },
  {
   "type": "Feature",
   "properties": {
    "t_hours": -9,
    "hour_index": 9,
    "level": "p50",
    "valid_time_utc": "2025-06-11T21:30:00+00:00"
   },
   "geometry": {
    "type": "Polygon",
    "coordinates": [
     [
      [
       75.67999999999965,
       9.372826206151224
      ],
      [
       75.67371243903517,
       9.370000000000065
      ],
      [
       75.67656132750248,
       9.365000000000064
      ],
      [
       75.67499999999966,
       9.360161303995769
      ],
      [
       75.66999999999966,
       9.366048380714242
      ],
      [
       75.66171853904463,
       9.360000000000063
      ],
      [
       75.66731248123132,
       9.345000000000061
      ],
      [
       75.67499999999966,
       9.337814849618836
      ],
      [
       75.68499999999965,
       9.342176259056934
      ],
      [
       75.69168395423428,
       9.350000000000062
      ],
      [
       75.68999999999964,
       9.353540890870315
      ],
      [
       75.68499999999965,
       9.354474607013909
      ],
      [
       75.67917507396699,
       9.350000000000062
      ],
      [
       75.67999999999965,
       9.356133423822369
      ],
      [
       75.68499999999965,
       9.361603615807535
      ],
      [
       75.68999999999964,
       9.356863034232338
      ],
      [
       75.69077898033885,
       9.360000000000063
      ],
      [
       75.69070583931345,
       9.365000000000064
      ],
      [
       75.68499999999965,
       9.365787628252072
      ],
      [
       75.67999999999965,
       9.372826206151224
      ]
     ]
    ]
   }
  },
  {
   "type": "Feature",
   "properties": {
    "t_hours": -9,
    "hour_index": 9,
    "level": "p90",
    "valid_time_utc": "2025-06-11T21:30:00+00:00"
   },
   "geometry": {
    "type": "Polygon",
    "coordinates": [
     [
      [
       75.67999999999965,
       9.388186683783518
      ],
      [
       75.66999999999966,
       9.378540092446686
      ],
      [
       75.65798713019981,
       9.375000000000066
      ],
      [
       75.65272832640895,
       9.355000000000063
      ],
      [
       75.66499999999967,
       9.33549629138706
      ],
      [
       75.68499999999965,
       9.336927965982285
      ],
      [
       75.68999999999964,
       9.332376763843792
      ],
      [
       75.69499999999964,
       9.341363414028375
      ],
      [
       75.69999999999963,
       9.337714516134197
      ],
      [
       75.70219836508191,
       9.34000000000006
      ],
      [
       75.69955731686717,
       9.350000000000062
      ],
      [
       75.7018803773698,
       9.355000000000063
      ],
      [
       75.69802936475017,
       9.360000000000063
      ],
      [
       75.69749543166891,
       9.370000000000065
      ],
      [
       75.68920525895959,
       9.370000000000065
      ],
      [
       75.67999999999965,
       9.388186683783518
      ]
     ]
    ]
   }
  },
  {
   "type": "Feature",
   "properties": {
    "t_hours": -10,
    "hour_index": 10,
    "level": "p50",
    "valid_time_utc": "2025-06-11T20:30:00+00:00"
   },
   "geometry": {
    "type": "Polygon",
    "coordinates": [
     [
      [
       75.67499999999966,
       9.370799011780225
      ],
      [
       75.66999999999966,
       9.37326865593317
      ],
      [
       75.66826231109638,
       9.365000000000064
      ],
      [
       75.65296961543588,
       9.355000000000063
      ],
      [
       75.66043975821495,
       9.350000000000062
      ],
      [
       75.65999999999967,
       9.343116489531354
      ],
      [
       75.66999999999966,
       9.336739730673765
      ],
      [
       75.67499999999966,
       9.342645665359726
      ],
      [
       75.67999999999965,
       9.342057730175153
      ],
      [
       75.68396991280665,
       9.350000000000062
      ],
      [
       75.67499999999966,
       9.370799011780225
      ]
     ]
    ]
   }
  },
  {
   "type": "Feature",
   "properties": {
    "t_hours": -10,
    "hour_index": 10,
    "level": "p90",
    "valid_time_utc": "2025-06-11T20:30:00+00:00"
   },
   "geometry": {
    "type": "Polygon",
    "coordinates": [
     [
      [
       75.67499999999966,
       9.385888599674916
      ],
      [
       75.66999999999966,
       9.385738548038868
      ],
      [
       75.66873806695313,
       9.380000000000067
      ],
      [
       75.66091983405899,
       9.375000000000066
      ],
      [
       75.65499999999967,
       9.375089932630564
      ],
      [
       75.65049785873437,
       9.370000000000065
      ],
      [
       75.64698004677597,
       9.355000000000063
      ],
      [
       75.64999999999968,
       9.346560027063198
      ],
      [
       75.65999999999967,
       9.335200346686566
      ],
      [
       75.67499999999966,
       9.3310314520538
      ],
      [
       75.69677701776538,
       9.34000000000006
      ],
      [
       75.69425753909039,
       9.345000000000061
      ],
      [
       75.69754003877567,
       9.350000000000062
      ],
      [
       75.68958237432805,
       9.360000000000063
      ],
      [
       75.68776412167442,
       9.370000000000065
      ],
      [
       75.67999999999965,
       9.37256646939862
      ],
      [
       75.67499999999966,
       9.385888599674916
      ]
     ]
    ]
   }
  },
  {
   "type": "Feature",
   "properties": {
    "t_hours": -11,
    "hour_index": 11,
    "level": "p10",
    "valid_time_utc": "2025-06-11T19:30:00+00:00"
   },
   "geometry": {
    "type": "Polygon",
    "coordinates": [
     [
      [
       75.65999999999967,
       9.357731197291919
      ],
      [
       75.65440420387253,
       9.355000000000063
      ],
      [
       75.65999999999967,
       9.345000000000061
      ],
      [
       75.66136539464448,
       9.355000000000063
      ],
      [
       75.65999999999967,
       9.357731197291919
      ]
     ]
    ]
   }
  },
  {
   "type": "Feature",
   "properties": {
    "t_hours": -11,
    "hour_index": 11,
    "level": "p50",
    "valid_time_utc": "2025-06-11T19:30:00+00:00"
   },
   "geometry": {
    "type": "Polygon",
    "coordinates": [
     [
      [
       75.66999999999966,
       9.368088111313947
      ],
      [
       75.66499999999967,
       9.369631206708062
      ],
      [
       75.65999999999967,
       9.366768325701292
      ],
      [
       75.64906503108146,
       9.355000000000063
      ],
      [
       75.64999999999968,
       9.347582790071614
      ],
      [
       75.65724194999487,
       9.34000000000006
      ],
      [
       75.66499999999967,
       9.337422466544462
      ],
      [
       75.68298965695725,
       9.350000000000062
      ],
      [
       75.66999999999966,
       9.368088111313947
      ]
     ]
    ]
   }
  },
  {
   "type": "Feature",
   "properties": {
    "t_hours": -11,
    "hour_index": 11,
    "level": "p90",
    "valid_time_utc": "2025-06-11T19:30:00+00:00"
   },
   "geometry": {
    "type": "Polygon",
    "coordinates": [
     [
      [
       75.66999999999966,
       9.386481857338053
      ],
      [
       75.65499999999967,
       9.374151501823196
      ],
      [
       75.64499999999968,
       9.372013729028263
      ],
      [
       75.64163296541041,
       9.365000000000064
      ],
      [
       75.64472381395177,
       9.34000000000006
      ],
      [
       75.65999999999967,
       9.33405604437699
      ],
      [
       75.66499999999967,
       9.32636565962598
      ],
      [
       75.67499999999966,
       9.33500000000006
      ],
      [
       75.68499999999965,
       9.334798782575861
      ],
      [
       75.69086821106767,
       9.34000000000006
      ],
      [
       75.68718817708468,
       9.345000000000061
      ],
      [
       75.69242494016132,
       9.350000000000062
      ],
      [
       75.6854872213164,
       9.360000000000063
      ],
      [
       75.68499999999965,
       9.367268957001025
      ],
      [
       75.67499999999966,
       9.37226621339357
      ],
      [
       75.66999999999966,
       9.386481857338053
      ]
     ]
    ]
   }
  },
  {
   "type": "Feature",
   "properties": {
    "t_hours": -12,
    "hour_index": 12,
    "level": "p10",
    "valid_time_utc": "2025-06-11T18:30:00+00:00"
   },
   "geometry": {
    "type": "Polygon",
    "coordinates": [
     [
      [
       75.64999999999968,
       9.354562868591243
      ],
      [
       75.64693170675238,
       9.350000000000062
      ],
      [
       75.64999999999968,
       9.346504322638777
      ],
      [
       75.65383280835053,
       9.350000000000062
      ],
      [
       75.64999999999968,
       9.354562868591243
      ]
     ]
    ]
   }
  },
  {
   "type": "Feature",
   "properties": {
    "t_hours": -12,
    "hour_index": 12,
    "level": "p50",
    "valid_time_utc": "2025-06-11T18:30:00+00:00"
   },
   "geometry": {
    "type": "Polygon",
    "coordinates": [
     [
      [
       75.66499999999967,
       9.367711452260766
      ],
      [
       75.64999999999968,
       9.367173182656682
      ],
      [
       75.64361515009693,
       9.350000000000062
      ],
      [
       75.64499999999968,
       9.341767988083095
      ],
      [
       75.64999999999968,
       9.343264749217582
      ],
      [
       75.65999999999967,
       9.334593549953116
      ],
      [
       75.6736167766358,
       9.345000000000061
      ],
      [
       75.66912339986608,
       9.365000000000064
      ],
      [
       75.66499999999967,
       9.367711452260766
      ]
     ]
    ]
   }
  },
  {
   "type": "Feature",
   "properties": {
    "t_hours": -12,
    "hour_index": 12,
    "level": "p90",
    "valid_time_utc": "2025-06-11T18:30:00+00:00"
   },
   "geometry": {
    "type": "Polygon",
    "coordinates": [
     [
      [
       75.66499999999967,
       9.37915963083467
      ],
      [
       75.65499999999967,
       9.37993071354672
      ],
      [
       75.64999999999968,
       9.374478706025403
      ],
      [
       75.63999999999969,
       9.373352134779022
      ],
      [
       75.63573198551379,
       9.370000000000065
      ],
      [
       75.63267765211287,
       9.355000000000063
      ],
      [
       75.63999999999969,
       9.345385737000601
      ],
      [
       75.63999999999969,
       9.338637351429233
      ],
      [
       75.64499999999968,
       9.334574687917529
      ],
      [
       75.64999999999968,
       9.33720670122041
      ],
      [
       75.65999999999967,
       9.32697252280226
      ],
      [
       75.66499999999967,
       9.332226460631764
      ],
      [
       75.67410655040851,
       9.33500000000006
      ],
      [
       75.67499999999966,
       9.338515808684768
      ],
      [
       75.67999999999965,
       9.333267289969482
      ],
      [
       75.68541440150761,
       9.34000000000006
      ],
      [
       75.68262727071642,
       9.345000000000061
      ],
      [
       75.68607212940654,
       9.355000000000063
      ],
      [
       75.68064851853225,
       9.370000000000065
      ],
      [
       75.66999999999966,
       9.369790844846252
      ],
      [
       75.66499999999967,
       9.37915963083467
      ]
     ]
    ]
   }
  },
  {
   "type": "Feature",
   "properties": {
    "t_hours": -13,
    "hour_index": 13,
    "level": "p10",
    "valid_time_utc": "2025-06-11T17:30:00+00:00"
   },
   "geometry": {
    "type": "Polygon",
    "coordinates": [
     [
      [
       75.64499999999968,
       9.35595582172527
      ],
      [
       75.6421996074928,
       9.350000000000062
      ],
      [
       75.64499999999968,
       9.34725884555769
      ],
      [
       75.6472294013063,
       9.350000000000062
      ],
      [
       75.64499999999968,
       9.35595582172527
      ]
     ]
    ]
   }
  },
  {
   "type": "Feature",
   "properties": {
    "t_hours": -13,
    "hour_index": 13,
    "level": "p50",
    "valid_time_utc": "2025-06-11T17:30:00+00:00"
   },
   "geometry": {
    "type": "MultiPolygon",
    "coordinates": [
     [
      [
       [
        75.64499999999968,
        9.370366325856162
       ],
       [
        75.64352509823698,
        9.360000000000063
       ],
       [
        75.63693541110253,
        9.350000000000062
       ],
       [
        75.64999999999968,
        9.337062694643436
       ],
       [
        75.66683716614793,
        9.34000000000006
       ],
       [
        75.65999999999967,
        9.364465790260242
       ],
       [
        75.65499999999967,
        9.36933122761796
       ],
       [
        75.64499999999968,
        9.370366325856162
       ]
      ]
     ],
     [
      [
       [
        75.66708035467879,
        9.365000000000064
       ],
       [
        75.66092051587569,
        9.365000000000064
       ],
       [
        75.66499999999967,
        9.362975216014787
       ],
       [
        75.66708035467879,
        9.365000000000064
       ]
      ]
     ]
    ]
   }
  },
  {
   "type": "Feature",
   "properties": {
    "t_hours": -13,
    "hour_index": 13,
    "level": "p90",
    "valid_time_utc": "2025-06-11T17:30:00+00:00"
   },
   "geometry": {
    "type": "Polygon",
    "coordinates": [
     [
      [
       75.65499999999967,
       9.387697363053555
      ],
      [
       75.65185709021502,
       9.385000000000067
      ],
      [
       75.65301377740089,
       9.380000000000067
      ],
      [
       75.64499999999968,
       9.380930095836712
      ],
      [
       75.63999999999969,
       9.375321605333054
      ],
      [
       75.63339854964485,
       9.375000000000066
      ],
      [
       75.62974449402337,
       9.370000000000065
      ],
      [
       75.63212959314245,
       9.365000000000064
      ],
      [
       75.6271947024805,
       9.355000000000063
      ],
      [
       75.63253418511833,
       9.34000000000006
      ],
      [
       75.64499999999968,
       9.33521403304551
      ],
      [
       75.65499999999967,
       9.325000000000058
      ],
      [
       75.66465996279055,
       9.33500000000006
      ],
      [
       75.66999999999966,
       9.335690556081955
      ],
      [
       75.67499999999966,
       9.332265484362411
      ],
      [
       75.67859230511809,
       9.33500000000006
      ],
      [
       75.68092051556643,
       9.34000000000006
      ],
      [
       75.67943258604576,
       9.350000000000062
      ],
      [
       75.68274455006932,
       9.355000000000063
      ],
      [
       75.66536192970663,
       9.375000000000066
      ],
      [
       75.66641967986776,
       9.380000000000067
      ],
      [
       75.65690645449122,
       9.380000000000067
      ],
      [
       75.65921886808756,
       9.385000000000067
      ],
      [
       75.65499999999967,
       9.387697363053555
      ]
     ]
    ]
   }
  },
  {
   "type": "Feature",
   "properties": {
    "t_hours": -14,
    "hour_index": 14,
    "level": "p10",
    "valid_time_utc": "2025-06-11T16:30:00+00:00"
   },
   "geometry": {
    "type": "Polygon",
    "coordinates": [
     [
      [
       75.64499999999968,
       9.357318706375596
      ],
      [
       75.63534957371628,
       9.350000000000062
      ],
      [
       75.63999999999969,
       9.346615308671543
      ],
      [
       75.65499999999967,
       9.350000000000062
      ],
      [
       75.64499999999968,
       9.357318706375596
      ]
     ]
    ]
   }
  },
  {
   "type": "Feature",
   "properties": {
    "t_hours": -14,
    "hour_index": 14,
    "level": "p50",
    "valid_time_utc": "2025-06-11T16:30:00+00:00"
   },
   "geometry": {
    "type": "Polygon",
    "coordinates": [
     [
      [
       75.64499999999968,
       9.372609701487827
      ],
      [
       75.63999999999969,
       9.370000000000065
      ],
      [
       75.6383253465692,
       9.360000000000063
      ],
      [
       75.63202758689171,
       9.350000000000062
      ],
      [
       75.64499999999968,
       9.33633969435553
      ],
      [
       75.65958687917585,
       9.34000000000006
      ],
      [
       75.66225122048327,
       9.345000000000061
      ],
      [
       75.65493772306267,
       9.365000000000064
      ],
      [
       75.64499999999968,
       9.372609701487827
      ]
     ]
    ]
   }
  },
  {
   "type": "Feature",
   "properties": {
    "t_hours": -14,
    "hour_index": 14,
    "level": "p90",
    "valid_time_utc": "2025-06-11T16:30:00+00:00"
   },
   "geometry": {
    "type": "MultiPolygon",
    "coordinates": [
     [
      [
       [
        75.66499999999967,
        9.373354971377886
       ],
       [
        75.63999999999969,
        9.381878859039993
       ],
       [
        75.63499999999969,
        9.373371694346995
       ],
       [
        75.62839103491925,
        9.375000000000066
       ],
       [
        75.62358785640288,
        9.360000000000063
       ],
       [
        75.6249999999997,
        9.354011852839507
       ],
       [
        75.618950674821,
        9.350000000000062
       ],
       [
        75.63999999999969,
        9.330640110563262
       ],
       [
        75.65499999999967,
        9.328274940560895
       ],
       [
        75.65999999999967,
        9.336181581891402
       ],
       [
        75.66999999999966,
        9.332146651211383
       ],
       [
        75.67735638948407,
        9.345000000000061
       ],
       [
        75.67176073001295,
        9.365000000000064
       ],
       [
        75.66499999999967,
        9.373354971377886
       ]
      ]
     ],
     [
      [
       [
        75.65499999999967,
        9.387795124416638
       ],
       [
        75.65089081999247,
        9.385000000000067
       ],
       [
        75.65499999999967,
        9.380180986923634
       ],
       [
        75.65767391366978,
        9.385000000000067
       ],
       [
        75.65499999999967,
        9.387795124416638
       ]
      ]
     ]
    ]
   }
  },
  {
   "type": "Feature",
   "properties": {
    "t_hours": -15,
    "hour_index": 15,
    "level": "p10",
    "valid_time_utc": "2025-06-11T15:30:00+00:00"
   },
   "geometry": {
    "type": "MultiPolygon",
    "coordinates": [
     [
      [
       [
        75.64499999999968,
        9.358397283548136
       ],
       [
        75.63900696690006,
        9.355000000000063
       ],
       [
        75.64499999999968,
        9.347788687744695
       ],
       [
        75.64698504559524,
        9.355000000000063
       ],
       [
        75.64499999999968,
        9.358397283548136
       ]
      ]
     ],
     [
      [
       [
        75.6387737030971,
        9.350000000000062
       ],
       [
        75.6299999999997,
        9.350000000000062
       ],
       [
        75.63499999999969,
        9.347531056071269
       ],
       [
        75.6387737030971,
        9.350000000000062
       ]
      ]
     ]
    ]
   }
  },
  {
   "type": "Feature",
   "properties": {
    "t_hours": -15,
    "hour_index": 15,
    "level": "p50",
    "valid_time_utc": "2025-06-11T15:30:00+00:00"
   },
   "geometry": {
    "type": "Polygon",
    "coordinates": [
     [
      [
       75.63999999999969,
       9.371027979702767
      ],
      [
       75.6299999999997,
       9.367319869616251
      ],
      [
       75.62492537091308,
       9.360000000000063
      ],
      [
       75.6299999999997,
       9.35527345555566
      ],
      [
       75.63499999999969,
       9.36217983696751
      ],
      [
       75.63626529496563,
       9.360000000000063
      ],
      [
       75.63523298329072,
       9.355000000000063
      ],
      [
       75.6299999999997,
       9.354930017063658
      ],
      [
       75.62491715589404,
       9.345000000000061
      ],
      [
       75.64499999999968,
       9.334710780339059
      ],
      [
       75.65662896234548,
       9.34000000000006
      ],
      [
       75.65084369442472,
       9.350000000000062
      ],
      [
       75.65083293313224,
       9.365000000000064
      ],
      [
       75.63999999999969,
       9.371027979702767
      ]
     ]
    ]
   }
  },
  {
   "type": "Feature",
   "properties": {
    "t_hours": -15,
    "hour_index": 15,
    "level": "p90",
    "valid_time_utc": "2025-06-11T15:30:00+00:00"
   },
   "geometry": {
    "type": "Polygon",
    "coordinates": [
     [
      [
       75.64999999999968,
       9.386402825650462
      ],
      [
       75.64499999999968,
       9.381600846150604
      ],
      [
       75.63499999999969,
       9.381714203242206
      ],
      [
       75.6299999999997,
       9.374881796031694
      ],
      [
       75.6199999999997,
       9.372714692212364
      ],
      [
       75.617898319806,
       9.370000000000065
      ],
      [
       75.62107402114096,
       9.365000000000064
      ],
      [
       75.61332956781125,
       9.350000000000062
      ],
      [
       75.6249999999997,
       9.336080317633101
      ],
      [
       75.63275864168209,
       9.33500000000006
      ],
      [
       75.63999999999969,
       9.326006057726428
      ],
      [
       75.64999999999968,
       9.328373038860347
      ],
      [
       75.65499999999967,
       9.335487069278384
      ],
      [
       75.66499999999967,
       9.33275440634241
      ],
      [
       75.6711606492558,
       9.345000000000061
      ],
      [
       75.66999999999966,
       9.349825912858494
      ],
      [
       75.66499999999967,
       9.34577172250252
      ],
      [
       75.66314574971601,
       9.350000000000062
      ],
      [
       75.66999999999966,
       9.350225152496922
      ],
      [
       75.6709364568798,
       9.355000000000063
      ],
      [
       75.66453810141222,
       9.365000000000064
      ],
      [
       75.66690713122586,
       9.370000000000065
      ],
      [
       75.65999999999967,
       9.374099883866075
      ],
      [
       75.65499999999967,
       9.370408397966221
      ],
      [
       75.64999999999968,
       9.386402825650462
      ]
     ]
    ]
   }
  },
  {
   "type": "Feature",
   "properties": {
    "t_hours": -16,
    "hour_index": 16,
    "level": "p10",
    "valid_time_utc": "2025-06-11T14:30:00+00:00"
   },
   "geometry": {
    "type": "Polygon",
    "coordinates": [
     [
      [
       75.63499999999969,
       9.353290612022445
      ],
      [
       75.62968414699054,
       9.350000000000062
      ],
      [
       75.63499999999969,
       9.345988772825963
      ],
      [
       75.63999999999969,
       9.350000000000062
      ],
      [
       75.63499999999969,
       9.353290612022445
      ]
     ]
    ]
   }
  },
  {
   "type": "Feature",
   "properties": {
    "t_hours": -16,
    "hour_index": 16,
    "level": "p90",
    "valid_time_utc": "2025-06-11T14:30:00+00:00"
   },
   "geometry": {
    "type": "Polygon",
    "coordinates": [
     [
      [
       75.64499999999968,
       9.38029906131825
      ],
      [
       75.6299999999997,
       9.384095965072222
      ],
      [
       75.61423955046871,
       9.370000000000065
      ],
      [
       75.61499999999971,
       9.362186416122437
      ],
      [
       75.60888208252508,
       9.360000000000063
      ],
      [
       75.60839141143511,
       9.350000000000062
      ],
      [
       75.61143962128915,
       9.345000000000061
      ],
      [
       75.6199999999997,
       9.333899818316253
      ],
      [
       75.62619350818723,
       9.33500000000006
      ],
      [
       75.63271858101777,
       9.330000000000059
      ],
      [
       75.63499999999969,
       9.323117489622593
      ],
      [
       75.63999999999969,
       9.322784129563775
      ],
      [
       75.64499999999968,
       9.333082527503308
      ],
      [
       75.66231748470916,
       9.33500000000006
      ],
      [
       75.66640859942345,
       9.350000000000062
      ],
      [
       75.66140221986359,
       9.370000000000065
      ],
      [
       75.65499999999967,
       9.374200801621875
      ],
      [
       75.64999999999968,
       9.370000000000065
      ],
      [
       75.6441287347675,
       9.375000000000066
      ],
      [
       75.64499999999968,
       9.38029906131825
      ]
     ]
    ]
   }
  },
  {
   "type": "Feature",
   "properties": {
    "t_hours": -17,
    "hour_index": 17,
    "level": "p10",
    "valid_time_utc": "2025-06-11T13:30:00+00:00"
   },
   "geometry": {
    "type": "Polygon",
    "coordinates": [
     [
      [
       75.6299999999997,
       9.35412564744585
      ],
      [
       75.6199999999997,
       9.350000000000062
      ],
      [
       75.6249999999997,
       9.342306370990688
      ],
      [
       75.63326976482017,
       9.350000000000062
      ],
      [
       75.6299999999997,
       9.35412564744585
      ]
     ]
    ]
   }
  },
  {
   "type": "Feature",
   "properties": {
    "t_hours": -17,
    "hour_index": 17,
    "level": "p50",
    "valid_time_utc": "2025-06-11T13:30:00+00:00"
   },
   "geometry": {
    "type": "Polygon",
    "coordinates": [
     [
      [
       75.6299999999997,
       9.370315201227127
      ],
      [
       75.6199999999997,
       9.368216251100053
      ],
      [
       75.61879457195005,
       9.365000000000064
      ],
      [
       75.62507251929046,
       9.355000000000063
      ],
      [
       75.61984467198363,
       9.355000000000063
      ],
      [
       75.61499999999971,
       9.359910735725862
      ],
      [
       75.61004966163237,
       9.355000000000063
      ],
      [
       75.61499999999971,
       9.339975484933358
      ],
      [
       75.6199999999997,
       9.342066048299007
      ],
      [
       75.6299999999997,
       9.332167430479583
      ],
      [
       75.63619332481976,
       9.33500000000006
      ],
      [
       75.63499999999969,
       9.34000000000006
      ],
      [
       75.6455750594453,
       9.34000000000006
      ],
      [
       75.64023039773598,
       9.350000000000062
      ],
      [
       75.63782385163307,
       9.365000000000064
      ],
      [
       75.6299999999997,
       9.370315201227127
      ]
     ]
    ]
   }
  },
  {
   "type": "Feature",
   "properties": {
    "t_hours": -17,
    "hour_index": 17,
    "level": "p90",
    "valid_time_utc": "2025-06-11T13:30:00+00:00"
   },
   "geometry": {
    "type": "Polygon",
    "coordinates": [
     [
      [
       75.63999999999969,
       9.379038697594588
      ],
      [
       75.6299999999997,
       9.378746423290716
      ],
      [
       75.6249999999997,
       9.383534745590518
      ],
      [
       75.61763507035856,
       9.375000000000066
      ],
      [
       75.60707104552083,
       9.370000000000065
      ],
      [
       75.60858287749413,
       9.365000000000064
      ],
      [
       75.60193998836883,
       9.360000000000063
      ],
      [
       75.60506751730955,
       9.350000000000062
      ],
      [
       75.60253672166067,
       9.345000000000061
      ],
      [
       75.61499999999971,
       9.331576626603722
      ],
      [
       75.6199999999997,
       9.335966727242758
      ],
      [
       75.6299999999997,
       9.322780656192112
      ],
      [
       75.64999999999968,
       9.334493951937956
      ],
      [
       75.65499999999967,
       9.33122226187849
      ],
      [
       75.65893513693591,
       9.33500000000006
      ],
      [
       75.65681342762471,
       9.34000000000006
      ],
      [
       75.66176718740545,
       9.350000000000062
      ],
      [
       75.65622557575864,
       9.355000000000063
      ],
      [
       75.65789222271668,
       9.360000000000063
      ],
      [
       75.64999999999968,
       9.372260639581679
      ],
      [
       75.64499999999968,
       9.370000000000065
      ],
      [
       75.63999999999969,
       9.379038697594588
      ]
     ]
    ]
   }
  },
  {
   "type": "Feature",
   "properties": {
    "t_hours": -18,
    "hour_index": 18,
    "level": "p10",
    "valid_time_utc": "2025-06-11T12:30:00+00:00"
   },
   "geometry": {
    "type": "Polygon",
    "coordinates": [
     [
      [
       75.6199999999997,
       9.350000000000062
      ],
      [
       75.6145593578224,
       9.345000000000061
      ],
      [
       75.6199999999997,
       9.34109701493929
      ],
      [
       75.62335841274134,
       9.345000000000061
      ],
      [
       75.6199999999997,
       9.350000000000062
      ]
     ]
    ]
   }
  },
  {
   "type": "Feature",
   "properties": {
    "t_hours": -18,
    "hour_index": 18,
    "level": "p50",
    "valid_time_utc": "2025-06-11T12:30:00+00:00"
   },
   "geometry": {
    "type": "MultiPolygon",
    "coordinates": [
     [
      [
       [
        75.6299999999997,
        9.364960146108892
       ],
       [
        75.61499999999971,
        9.37143500532262
       ],
       [
        75.60999022049108,
        9.365000000000064
       ],
       [
        75.616374249537,
        9.360000000000063
       ],
       [
        75.6157888327742,
        9.355000000000063
       ],
       [
        75.60999999999972,
        9.359267240078303
       ],
       [
        75.60303412221815,
        9.355000000000063
       ],
       [
        75.6033568408152,
        9.350000000000062
       ],
       [
        75.6249999999997,
        9.330675676978144
       ],
       [
        75.62842279390289,
        9.33500000000006
       ],
       [
        75.62576788590823,
        9.34000000000006
       ],
       [
        75.63349849673565,
        9.345000000000061
       ],
       [
        75.63763380855994,
        9.355000000000063
       ],
       [
        75.6299999999997,
        9.364960146108892
       ]
      ]
     ],
     [
      [
       [
        75.60999999999972,
        9.342838982688818
       ],
       [
        75.60782449359792,
        9.34000000000006
       ],
       [
        75.60999999999972,
        9.338209307448054
       ],
       [
        75.61447091898158,
        9.34000000000006
       ],
       [
        75.60999999999972,
        9.342838982688818
       ]
      ]
     ]
    ]
   }
  },
  {
   "type": "Feature",
   "properties": {
    "t_hours": -18,
    "hour_index": 18,
    "level": "p90",
    "valid_time_utc": "2025-06-11T12:30:00+00:00"
   },
   "geometry": {
    "type": "Polygon",
    "coordinates": [
     [
      [
       75.6199999999997,
       9.382112407789318
      ],
      [
       75.60999999999972,
       9.372457908475194
      ],
      [
       75.59999999999972,
       9.370000000000065
      ],
      [
       75.60123997608204,
       9.360000000000063
      ],
      [
       75.5930221912048,
       9.345000000000061
      ],
      [
       75.60499999999972,
       9.331064694321697
      ],
      [
       75.60999999999972,
       9.329382947807613
      ],
      [
       75.61499999999971,
       9.33505807222231
      ],
      [
       75.61809160379421,
       9.325000000000058
      ],
      [
       75.6249999999997,
       9.319576040136523
      ],
      [
       75.6299999999997,
       9.325895735806942
      ],
      [
       75.63999999999969,
       9.330963897151907
      ],
      [
       75.64499999999968,
       9.327479627453807
      ],
      [
       75.64899368334646,
       9.330000000000059
      ],
      [
       75.6540935600612,
       9.350000000000062
      ],
      [
       75.64499999999968,
       9.371118576989339
      ],
      [
       75.63999999999969,
       9.368743665366587
      ],
      [
       75.6299999999997,
       9.378421703336628
      ],
      [
       75.6199999999997,
       9.382112407789318
      ]
     ]
    ]
   }
  },
  {
   "type": "Feature",
   "properties": {
    "t_hours": -19,
    "hour_index": 19,
    "level": "p10",
    "valid_time_utc": "2025-06-11T11:30:00+00:00"
   },
   "geometry": {
    "type": "Polygon",
    "coordinates": [
     [
      [
       75.61499999999971,
       9.353867087275097
      ],
      [
       75.60516899508839,
       9.345000000000061
      ],
      [
       75.60999999999972,
       9.339893860748884
      ],
      [
       75.61499999999971,
       9.341965840694881
      ],
      [
       75.61915479418715,
       9.350000000000062
      ],
      [
       75.61499999999971,
       9.353867087275097
      ]
     ]
    ]
   }
  },
  {
   "type": "Feature",
   "properties": {
    "t_hours": -19,
    "hour_index": 19,
    "level": "p90",
    "valid_time_utc": "2025-06-11T11:30:00+00:00"
   },
   "geometry": {
    "type": "Polygon",
    "coordinates": [
     [
      [
       75.60999999999972,
       9.380526732930745
      ],
      [
       75.59999999999972,
       9.370926390127318
      ],
      [
       75.59331826375761,
       9.370000000000065
      ],
      [
       75.58999999999973,
       9.347319923343145
      ],
      [
       75.58275997274959,
       9.345000000000061
      ],
      [
       75.59499999999973,
       9.33087321288399
      ],
      [
       75.60999999999972,
       9.329034454353105
      ],
      [
       75.61499999999971,
       9.317491373512368
      ],
      [
       75.6199999999997,
       9.318174596737338
      ],
      [
       75.6299999999997,
       9.329043418650318
      ],
      [
       75.63499999999969,
       9.330568822949079
      ],
      [
       75.63999999999969,
       9.32739139950143
      ],
      [
       75.64776812465138,
       9.345000000000061
      ],
      [
       75.64296217895604,
       9.355000000000063
      ],
      [
       75.64271643307742,
       9.365000000000064
      ],
      [
       75.63499999999969,
       9.367399624805778
      ],
      [
       75.6299999999997,
       9.363596374664894
      ],
      [
       75.62394570943499,
       9.370000000000065
      ],
      [
       75.6249999999997,
       9.380000000000067
      ],
      [
       75.61499999999971,
       9.375276326032246
      ],
      [
       75.60999999999972,
       9.380526732930745
      ]
     ]
    ]
   }
  },
  {
   "type": "Feature",
   "properties": {
    "t_hours": -20,
    "hour_index": 20,
    "level": "p10",
    "valid_time_utc": "2025-06-11T10:30:00+00:00"
   },
   "geometry": {
    "type": "Polygon",
    "coordinates": [
     [
      [
       75.60999999999972,
       9.350172517054887
      ],
      [
       75.60499999999972,
       9.351638392470168
      ],
      [
       75.59891040132693,
       9.345000000000061
      ],
      [
       75.59999999999972,
       9.342399210725521
      ],
      [
       75.60499999999972,
       9.34000000000006
      ],
      [
       75.60999999999972,
       9.350172517054887
      ]
     ]
    ]
   }
  },
  {
   "type": "Feature",
   "properties": {
    "t_hours": -20,
    "hour_index": 20,
    "level": "p50",
    "valid_time_utc": "2025-06-11T10:30:00+00:00"
   },
   "geometry": {
    "type": "Polygon",
    "coordinates": [
     [
      [
       75.60499999999972,
       9.368596537664125
      ],
      [
       75.59678060176091,
       9.365000000000064
      ],
      [
       75.59472189448945,
       9.360000000000063
      ],
      [
       75.59999999999972,
       9.357175868388676
      ],
      [
       75.59999999999972,
       9.352536586808503
      ],
      [
       75.59499999999973,
       9.350000000000062
      ],
      [
       75.58999999999973,
       9.35511471808582
      ],
      [
       75.58665676469337,
       9.345000000000061
      ],
      [
       75.60999999999972,
       9.326336753539712
      ],
      [
       75.61499999999971,
       9.327748986000243
      ],
      [
       75.619504691258,
       9.33500000000006
      ],
      [
       75.61368124163282,
       9.34000000000006
      ],
      [
       75.61499999999971,
       9.343039485810875
      ],
      [
       75.6199999999997,
       9.342289881763945
      ],
      [
       75.61927845032255,
       9.350000000000062
      ],
      [
       75.62264477967899,
       9.355000000000063
      ],
      [
       75.61499999999971,
       9.358357362881572
      ],
      [
       75.60499999999972,
       9.368596537664125
      ]
     ]
    ]
   }
  },
  {
   "type": "Feature",
   "properties": {
    "t_hours": -20,
    "hour_index": 20,
    "level": "p90",
    "valid_time_utc": "2025-06-11T10:30:00+00:00"
   },
   "geometry": {
    "type": "Polygon",
    "coordinates": [
     [
      [
       75.61874799241403,
       9.375000000000066
      ],
      [
       75.59999999999972,
       9.379062639922623
      ],
      [
       75.59499999999973,
       9.36924151541292
      ],
      [
       75.58499999999974,
       9.367297488289822
      ],
      [
       75.58118488768773,
       9.360000000000063
      ],
      [
       75.58063481250099,
       9.345000000000061
      ],
      [
       75.57354298529124,
       9.34000000000006
      ],
      [
       75.58499999999974,
       9.328159573089808
      ],
      [
       75.6025504019029,
       9.325000000000058
      ],
      [
       75.60999999999972,
       9.315435313242327
      ],
      [
       75.61499999999971,
       9.317977680248985
      ],
      [
       75.6199999999997,
       9.327228794016706
      ],
      [
       75.63499999999969,
       9.332932205898619
      ],
      [
       75.64090706319674,
       9.345000000000061
      ],
      [
       75.63999999999969,
       9.350884728727722
      ],
      [
       75.6344382250091,
       9.350000000000062
      ],
      [
       75.63640118700992,
       9.355000000000063
      ],
      [
       75.6299999999997,
       9.369383722919501
      ],
      [
       75.6199999999997,
       9.366878824636174
      ],
      [
       75.61874799241403,
       9.375000000000066
      ]
     ]
    ]
   }
  },
  {
   "type": "Feature",
   "properties": {
    "t_hours": -21,
    "hour_index": 21,
    "level": "p10",
    "valid_time_utc": "2025-06-11T09:30:00+00:00"
   },
   "geometry": {
    "type": "Polygon",
    "coordinates": [
     [
      [
       75.59499999999973,
       9.347649493387507
      ],
      [
       75.58984187245169,
       9.34000000000006
      ],
      [
       75.59499999999973,
       9.33500000000006
      ],
      [
       75.59966872697464,
       9.345000000000061
      ],
      [
       75.59499999999973,
       9.347649493387507
      ]
     ]
    ]
   }
  },
  {
   "type": "Feature",
   "properties": {
    "t_hours": -21,
    "hour_index": 21,
    "level": "p50",
    "valid_time_utc": "2025-06-11T09:30:00+00:00"
   },
   "geometry": {
    "type": "Polygon",
    "coordinates": [
     [
      [
       75.59499999999973,
       9.365727557916733
      ],
      [
       75.58720044251123,
       9.360000000000063
      ],
      [
       75.58999999999973,
       9.352731711413952
      ],
      [
       75.59511185708126,
       9.355000000000063
      ],
      [
       75.58999999999973,
       9.348949427132203
      ],
      [
       75.58499999999974,
       9.351152442660942
      ],
      [
       75.58042057788944,
       9.345000000000061
      ],
      [
       75.58999999999973,
       9.330341070056262
      ],
      [
       75.59602675152983,
       9.330000000000059
      ],
      [
       75.60499999999972,
       9.322730146101557
      ],
      [
       75.61499999999971,
       9.33500000000006
      ],
      [
       75.61169110955339,
       9.345000000000061
      ],
      [
       75.61414076936745,
       9.355000000000063
      ],
      [
       75.59499999999973,
       9.365727557916733
      ]
     ]
    ]
   }
  },
  {
   "type": "Feature",
   "properties": {
    "t_hours": -21,
    "hour_index": 21,
    "level": "p90",
    "valid_time_utc": "2025-06-11T09:30:00+00:00"
   },
   "geometry": {
    "type": "MultiPolygon",
    "coordinates": [
     [
      [
       [
        75.60499999999972,
        9.376857641248105
       ],
       [
        75.59999999999972,
        9.37523759907057
       ],
       [
        75.59499999999973,
        9.378067065235529
       ],
       [
        75.58499999999974,
        9.367445577667153
       ],
       [
        75.57499999999975,
        9.368745374347487
       ],
       [
        75.57230835330377,
        9.365000000000064
       ],
       [
        75.57533261524114,
        9.345000000000061
       ],
       [
        75.56777592291368,
        9.34000000000006
       ],
       [
        75.57499999999975,
        9.32763879015357
       ],
       [
        75.58999999999973,
        9.321541438213753
       ],
       [
        75.59499999999973,
        9.32253266711374
       ],
       [
        75.59999999999972,
        9.315000000000056
       ],
       [
        75.60999999999972,
        9.318118232513234
       ],
       [
        75.6199999999997,
        9.330582793893434
       ],
       [
        75.6299999999997,
        9.332335741720573
       ],
       [
        75.6342624365832,
        9.345000000000061
       ],
       [
        75.62784044195841,
        9.350000000000062
       ],
       [
        75.6249999999997,
        9.364446670721172
       ],
       [
        75.6199999999997,
        9.360588205053926
       ],
       [
        75.60576740984884,
        9.365000000000064
       ],
       [
        75.61172479842197,
        9.370000000000065
       ],
       [
        75.60499999999972,
        9.376857641248105
       ]
      ]
     ],
     [
      [
       [
        75.6299999999997,
        9.32746174272388
       ],
       [
        75.62761819614575,
        9.325000000000058
       ],
       [
        75.6299999999997,
        9.322529419195137
       ],
       [
        75.63206919672467,
        9.325000000000058
       ],
       [
        75.6299999999997,
        9.32746174272388
       ]
      ]
     ]
    ]
   }
  },
  {
   "type": "Feature",
   "properties": {
    "t_hours": -22,
    "hour_index": 22,
    "level": "p10",
    "valid_time_utc": "2025-06-11T08:30:00+00:00"
   },
   "geometry": {
    "type": "Polygon",
    "coordinates": [
     [
      [
       75.58999999999973,
       9.345000000000061
      ],
      [
       75.58499999999974,
       9.344634063912222
      ],
      [
       75.58244752563009,
       9.34000000000006
      ],
      [
       75.58999999999973,
       9.332124374844554
      ],
      [
       75.59463498120053,
       9.33500000000006
      ],
      [
       75.58999999999973,
       9.345000000000061
      ]
     ]
    ]
   }
  },
  {
   "type": "Feature",
   "properties": {
    "t_hours": -22,
    "hour_index": 22,
    "level": "p50",
    "valid_time_utc": "2025-06-11T08:30:00+00:00"
   },
   "geometry": {
    "type": "Polygon",
    "coordinates": [
     [
      [
       75.58499999999974,
       9.360622558805417
      ],
      [
       75.57918589608175,
       9.360000000000063
      ],
      [
       75.57266756667086,
       9.345000000000061
      ],
      [
       75.5812948883861,
       9.330000000000059
      ],
      [
       75.59499999999973,
       9.32281428070527
      ],
      [
       75.59999999999972,
       9.323207839951605
      ],
      [
       75.59999999999972,
       9.345138299450943
      ],
      [
       75.60040279173819,
       9.34000000000006
      ],
      [
       75.60499999999972,
       9.336992847632295
      ],
      [
       75.61046191616141,
       9.350000000000062
      ],
      [
       75.59499999999973,
       9.35978044975033
      ],
      [
       75.58999999999973,
       9.355889832041196
      ],
      [
       75.58499999999974,
       9.360622558805417
      ]
     ]
    ]
   }
  },
  {
   "type": "Feature",
   "properties": {
    "t_hours": -22,
    "hour_index": 22,
    "level": "p90",
    "valid_time_utc": "2025-06-11T08:30:00+00:00"
   },
   "geometry": {
    "type": "Polygon",
    "coordinates": [
     [
      [
       75.58999999999973,
       9.380020657306302
      ],
      [
       75.58710668248253,
       9.375000000000066
      ],
      [
       75.57970852052077,
       9.375000000000066
      ],
      [
       75.5804934687744,
       9.365000000000064
      ],
      [
       75.5638276573674,
       9.365000000000064
      ],
      [
       75.56232451958817,
       9.360000000000063
      ],
      [
       75.56999999999975,
       9.355162450586146
      ],
      [
       75.57017193859069,
       9.350000000000062
      ],
      [
       75.56442180843537,
       9.350000000000062
      ],
      [
       75.5585446326209,
       9.33500000000006
      ],
      [
       75.56999999999975,
       9.323632387691081
      ],
      [
       75.58966053098892,
       9.320000000000057
      ],
      [
       75.59013311789958,
       9.315000000000056
      ],
      [
       75.59999999999972,
       9.312458957090971
      ],
      [
       75.60999999999972,
       9.323345250847549
      ],
      [
       75.6199999999997,
       9.326323946566076
      ],
      [
       75.62783440421367,
       9.33500000000006
      ],
      [
       75.62810287986889,
       9.34000000000006
      ],
      [
       75.62267886306378,
       9.345000000000061
      ],
      [
       75.62285188927403,
       9.355000000000063
      ],
      [
       75.6199999999997,
       9.358692882187198
      ],
      [
       75.61263560954532,
       9.360000000000063
      ],
      [
       75.60999999999972,
       9.366701176616328
      ],
      [
       75.6045271109548,
       9.360000000000063
      ],
      [
       75.59350252828271,
       9.370000000000065
      ],
      [
       75.58999999999973,
       9.380020657306302
      ]
     ]
    ]
   }
  },
  {
   "type": "Feature",
   "properties": {
    "t_hours": -23,
    "hour_index": 23,
    "level": "p10",
    "valid_time_utc": "2025-06-11T07:30:00+00:00"
   },
   "geometry": {
    "type": "Polygon",
    "coordinates": [
     [
      [
       75.58499999999974,
       9.345000000000061
      ],
      [
       75.57785064859296,
       9.34000000000006
      ],
      [
       75.57849621882362,
       9.33500000000006
      ],
      [
       75.58499999999974,
       9.33082678565907
      ],
      [
       75.58704584348976,
       9.33500000000006
      ],
      [
       75.58499999999974,
       9.345000000000061
      ]
     ]
    ]
   }
  },
  {
   "type": "Feature",
   "properties": {
    "t_hours": -23,
    "hour_index": 23,
    "level": "p50",
    "valid_time_utc": "2025-06-11T07:30:00+00:00"
   },
   "geometry": {
    "type": "MultiPolygon",
    "coordinates": [
     [
      [
       [
        75.57499999999975,
        9.361444358795687
       ],
       [
        75.57228576495218,
        9.360000000000063
       ],
       [
        75.57167411007791,
        9.350000000000062
       ],
       [
        75.56670181640534,
        9.345000000000061
       ],
       [
        75.56848802640297,
        9.34000000000006
       ],
       [
        75.57419879656115,
        9.330000000000059
       ],
       [
        75.59499999999973,
        9.319840523957081
       ],
       [
        75.59642395172023,
        9.325000000000058
       ],
       [
        75.59067285472722,
        9.33500000000006
       ],
       [
        75.60061858680172,
        9.345000000000061
       ],
       [
        75.6009937160585,
        9.350000000000062
       ],
       [
        75.59499999999973,
        9.347631502833368
       ],
       [
        75.58999999999973,
        9.357837737089946
       ],
       [
        75.57999999999974,
        9.354321966964722
       ],
       [
        75.57499999999975,
        9.361444358795687
       ]
      ]
     ],
     [
      [
       [
        75.55999999999976,
        9.337712938798044
       ],
       [
        75.55754610928291,
        9.33500000000006
       ],
       [
        75.55999999999976,
        9.332188136258555
       ],
       [
        75.56246375826517,
        9.33500000000006
       ],
       [
        75.55999999999976,
        9.337712938798044
       ]
      ]
     ]
    ]
   }
  },
  {
   "type": "Feature",
   "properties": {
    "t_hours": -23,
    "hour_index": 23,
    "level": "p90",
    "valid_time_utc": "2025-06-11T07:30:00+00:00"
   },
   "geometry": {
    "type": "Polygon",
    "coordinates": [
     [
      [
       75.57999999999974,
       9.379426316875794
      ],
      [
       75.56999999999975,
       9.365950200484507
      ],
      [
       75.55794779051202,
       9.365000000000064
      ],
      [
       75.55751696332977,
       9.360000000000063
      ],
      [
       75.5624982533214,
       9.355000000000063
      ],
      [
       75.55650177424862,
       9.350000000000062
      ],
      [
       75.55175314580843,
       9.33500000000006
      ],
      [
       75.55499999999977,
       9.328126251150046
      ],
      [
       75.56499999999976,
       9.320601893582502
      ],
      [
       75.57999999999974,
       9.32107220677959
      ],
      [
       75.58037369592314,
       9.315000000000056
      ],
      [
       75.59499999999973,
       9.312488171034625
      ],
      [
       75.59999999999972,
       9.3217303539493
      ],
      [
       75.60999999999972,
       9.325701473447372
      ],
      [
       75.61499999999971,
       9.324027842295289
      ],
      [
       75.61523648172748,
       9.330000000000059
      ],
      [
       75.62209284342347,
       9.33500000000006
      ],
      [
       75.62206334777751,
       9.34000000000006
      ],
      [
       75.61499999999971,
       9.347136612317772
      ],
      [
       75.60999999999972,
       9.359151824523856
      ],
      [
       75.60499999999972,
       9.360265525248886
      ],
      [
       75.59999999999972,
       9.366499779914298
      ],
      [
       75.59499999999973,
       9.364142253477333
      ],
      [
       75.58441292772098,
       9.370000000000065
      ],
      [
       75.58474123016398,
       9.375000000000066
      ],
      [
       75.57999999999974,
       9.379426316875794
      ]
     ]
    ]
   }
  },
  {
   "type": "Feature",
   "properties": {
    "t_hours": -24,
    "hour_index": 24,
    "level": "p10",
    "valid_time_utc": "2025-06-11T06:30:00+00:00"
   },
   "geometry": {
    "type": "MultiPolygon",
    "coordinates": [
     [
      [
       [
        75.57499999999975,
        9.33982697995077
       ],
       [
        75.57139745684358,
        9.33500000000006
       ],
       [
        75.57499999999975,
        9.32958350099969
       ],
       [
        75.57990408628841,
        9.33500000000006
       ],
       [
        75.57499999999975,
        9.33982697995077
       ]
      ]
     ],
     [
      [
       [
        75.57999999999974,
        9.350249452359826
       ],
       [
        75.57499999999975,
        9.345000000000061
       ],
       [
        75.57999999999974,
        9.342197507303887
       ],
       [
        75.58195694206529,
        9.345000000000061
       ],
       [
        75.57999999999974,
        9.350249452359826
       ]
      ]
     ]
    ]
   }
  },
  {
   "type": "Feature",
   "properties": {
    "t_hours": -24,
    "hour_index": 24,
    "level": "p50",
    "valid_time_utc": "2025-06-11T06:30:00+00:00"
   },
   "geometry": {
    "type": "MultiPolygon",
    "coordinates": [
     [
      [
       [
        75.56999999999975,
        9.361176504428247
       ],
       [
        75.56499999999976,
        9.347028628901967
       ],
       [
        75.55499999999977,
        9.34000000000006
       ],
       [
        75.56499999999976,
        9.335735653287424
       ],
       [
        75.5675122449753,
        9.330000000000059
       ],
       [
        75.57999999999974,
        9.32019064306558
       ],
       [
        75.58496527968593,
        9.325000000000058
       ],
       [
        75.58499999999974,
        9.335340006936436
       ],
       [
        75.59499999999973,
        9.330513583863251
       ],
       [
        75.59926646399754,
        9.33500000000006
       ],
       [
        75.58854665386562,
        9.345000000000061
       ],
       [
        75.58999999999973,
        9.349600984915549
       ],
       [
        75.59682377757996,
        9.350000000000062
       ],
       [
        75.57499999999975,
        9.356410621733662
       ],
       [
        75.56999999999975,
        9.361176504428247
       ]
      ]
     ],
     [
      [
       [
        75.58499999999974,
        9.324964758213483
       ],
       [
        75.58019341515647,
        9.320000000000057
       ],
       [
        75.58499999999974,
        9.317965466530707
       ],
       [
        75.58759805535324,
        9.320000000000057
       ],
       [
        75.58499999999974,
        9.324964758213483
       ]
      ]
     ]
    ]
   }
  },
  {
   "type": "Feature",
   "properties": {
    "t_hours": -24,
    "hour_index": 24,
    "level": "p90",
    "valid_time_utc": "2025-06-11T06:30:00+00:00"
   },
   "geometry": {
    "type": "Polygon",
    "coordinates": [
     [
      [
       75.57499999999975,
       9.37696644093319
      ],
      [
       75.56499999999976,
       9.367547435026925
      ],
      [
       75.55499999999977,
       9.365124019856356
      ],
      [
       75.55043712096001,
       9.360000000000063
      ],
      [
       75.55330150952686,
       9.355000000000063
      ],
      [
       75.54498292218966,
       9.33500000000006
      ],
      [
       75.55999999999976,
       9.317005788791333
      ],
      [
       75.56999999999975,
       9.321712393912307
      ],
      [
       75.58499999999974,
       9.312001175409442
      ],
      [
       75.58999999999973,
       9.313286919939138
      ],
      [
       75.60499999999972,
       9.330822545331495
      ],
      [
       75.61004126124924,
       9.325000000000058
      ],
      [
       75.61590953007786,
       9.34000000000006
      ],
      [
       75.60768264418633,
       9.345000000000061
      ],
      [
       75.61018070077708,
       9.350000000000062
      ],
      [
       75.60499999999972,
       9.359583103564953
      ],
      [
       75.58999999999973,
       9.358415963135721
      ],
      [
       75.58791759550867,
       9.360000000000063
      ],
      [
       75.5924922673215,
       9.370000000000065
      ],
      [
       75.58999999999973,
       9.371952077233711
      ],
      [
       75.58499999999974,
       9.36793604858522
      ],
      [
       75.57999999999974,
       9.369445649029982
      ],
      [
       75.57998714613873,
       9.375000000000066
      ],
      [
       75.57499999999975,
       9.37696644093319
      ]
     ]
    ]
   }
  },
  {
   "type": "Feature",
   "properties": {
    "kind": "centroid_track",
    "direction": "backtrack"
   },
   "geometry": {
    "type": "LineString",
    "coordinates": [
     [
      75.72957,
      9.35661
     ],
     [
      75.72434,
      9.35731
     ],
     [
      75.71947,
      9.35836
     ],
     [
      75.71441,
      9.35907
     ],
     [
      75.70888,
      9.35961
     ],
     [
      75.70324,
      9.35958
     ],
     [
      75.69719,
      9.3591
     ],
     [
      75.69079,
      9.35812
     ],
     [
      75.68388,
      9.35705
     ],
     [
      75.6773,
      9.35596
     ],
     [
      75.67097,
      9.35496
     ],
     [
      75.66484,
      9.35451
     ],
     [
      75.65913,
      9.35423
     ],
     [
      75.65354,
      9.35422
     ],
     [
      75.64809,
      9.35425
     ],
     [
      75.64228,
      9.35408
     ],
     [
      75.63625,
      9.35354
     ],
     [
      75.62987,
      9.35249
     ],
     [
      75.62288,
      9.35102
     ],
     [
      75.6154,
      9.34935
     ],
     [
      75.60742,
      9.34738
     ],
     [
      75.59963,
      9.34527
     ],
     [
      75.59221,
      9.34346
     ],
     [
      75.58516,
      9.34225
     ],
     [
      75.57871,
      9.3416
     ]
    ]
   }
  }
 ]
}