{
 "type": "FeatureCollection",
 "features": [
  {
   "type": "Feature",
   "properties": {
    "t_hours": 0,
    "hour_index": 0,
    "level": "p10",
    "valid_time_utc": "2025-06-12T06:30:00+00:00"
   },
   "geometry": {
    "type": "Polygon",
    "coordinates": [
     [
      [
       75.72499999999961,
       9.355763715869813
      ],
      [
       75.72303408055677,
       9.350000000000062
      ],
      [
       75.72499999999961,
       9.347418400369826
      ],
      [
       75.72708767726132,
       9.350000000000062
      ],
      [
       75.72499999999961,
       9.355763715869813
      ]
     ]
    ]
   }
  },
  {
   "type": "Feature",
   "properties": {
    "t_hours": 0,
    "hour_index": 0,
    "level": "p50",
    "valid_time_utc": "2025-06-12T06:30:00+00:00"
   },
   "geometry": {
    "type": "MultiPolygon",
    "coordinates": [
     [
      [
       [
        75.73963477577529,
        9.350000000000062
       ],
       [
        75.72499999999961,
        9.359166645281025
       ],
       [
        75.718577223675,
        9.350000000000062
       ],
       [
        75.71996970634544,
        9.345000000000061
       ],
       [
        75.7349999999996,
        9.34000000000006
       ],
       [
        75.73963477577529,
        9.350000000000062
       ]
      ]
     ],
     [
      [
       [
        75.7399999999996,
        9.371355762312229
       ],
       [
        75.73664950398823,
        9.370000000000065
       ],
       [
        75.7337080903239,
        9.360000000000063
       ],
       [
        75.7399999999996,
        9.350858575189703
       ],
       [
        75.7399999999996,
        9.371355762312229
       ]
      ]
     ]
    ]
   }
  },
  {
   "type": "Feature",
   "properties": {
    "t_hours": 0,
    "hour_index": 0,
    "level": "p90",
    "valid_time_utc": "2025-06-12T06:30:00+00:00"
   },
   "geometry": {
    "type": "Polygon",
    "coordinates": [
     [
      [
       75.7399999999996,
       9.376031962214642
      ],
      [
       75.7299999999996,
       9.37953617925196
      ],
      [
       75.70913815736333,
       9.360000000000063
      ],
      [
       75.70905732674598,
       9.355000000000063
      ],
      [
       75.71999999999962,
       9.34000000000006
      ],
      [
       75.72510353906003,
       9.34000000000006
      ],
      [
       75.7299999999996,
       9.334542728031867
      ],
      [
       75.7469448545998,
       9.350000000000062
      ],
      [
       75.7399999999996,
       9.376031962214642
      ]
     ]
    ]
   }
  },
  {
   "type": "Feature",
   "properties": {
    "t_hours": 1,
    "hour_index": 1,
    "level": "p50",
    "valid_time_utc": "2025-06-12T07:30:00+00:00"
   },
   "geometry": {
    "type": "MultiPolygon",
    "coordinates": [
     [
      [
       [
        75.7299999999996,
        9.372285730539073
       ],
       [
        75.72499999999961,
        9.348952520040324
       ],
       [
        75.7349999999996,
        9.339616853348696
       ],
       [
        75.7399999999996,
        9.340468611304225
       ],
       [
        75.74999999999959,
        9.349148074148248
       ],
       [
        75.74999999999959,
        9.352269943949223
       ],
       [
        75.7349999999996,
        9.353417181910961
       ],
       [
        75.73888235352538,
        9.360000000000063
       ],
       [
        75.7299999999996,
        9.372285730539073
       ]
      ]
     ],
     [
      [
       [
        75.74499999999959,
        9.36523713728533
       ],
       [
        75.74086045047525,
        9.360000000000063
       ],
       [
        75.74499999999959,
        9.355792827814524
       ],
       [
        75.74841987271641,
        9.360000000000063
       ],
       [
        75.74499999999959,
        9.36523713728533
       ]
      ]
     ]
    ]
   }
  },
  {
   "type": "Feature",
   "properties": {
    "t_hours": 1,
    "hour_index": 1,
    "level": "p90",
    "valid_time_utc": "2025-06-12T07:30:00+00:00"
   },
   "geometry": {
    "type": "Polygon",
    "coordinates": [
     [
      [
       75.74499999999959,
       9.378310703631875
      ],
      [
       75.7299999999996,
       9.377818390550908
      ],
      [
       75.71539648203873,
       9.360000000000063
      ],
      [
       75.7210429056682,
       9.345000000000061
      ],
      [
       75.7299999999996,
       9.341094578501032
      ],
      [
       75.7349999999996,
       9.334775295233817
      ],
      [
       75.7399999999996,
       9.3349592147548
      ],
      [
       75.75355424483293,
       9.350000000000062
      ],
      [
       75.7527786131097,
       9.365000000000064
      ],
      [
       75.74729445433367,
       9.370000000000065
      ],
      [
       75.74809843821632,
       9.375000000000066
      ],
      [
       75.74499999999959,
       9.378310703631875
      ]
     ]
    ]
   }
  },
  {
   "type": "Feature",
   "properties": {
    "t_hours": 2,
    "hour_index": 2,
    "level": "p10",
    "valid_time_utc": "2025-06-12T08:30:00+00:00"
   },
   "geometry": {
    "type": "Polygon",
    "coordinates": [
     [
      [
       75.7349999999996,
       9.356172385151995
      ],
      [
       75.73372642257387,
       9.350000000000062
      ],
      [
       75.74499999999959,
       9.350000000000062
      ],
      [
       75.7399999999996,
       9.35015395556186
      ],
      [
       75.7349999999996,
       9.356172385151995
      ]
     ]
    ]
   }
  },
  {
   "type": "Feature",
   "properties": {
    "t_hours": 2,
    "hour_index": 2,
    "level": "p50",
    "valid_time_utc": "2025-06-12T08:30:00+00:00"
   },
   "geometry": {
    "type": "MultiPolygon",
    "coordinates": [
     [
      [
       [
        75.74999999999959,
        9.364364101070286
       ],
       [
        75.74113934413091,
        9.360000000000063
       ],
       [
        75.7427131650707,
        9.355000000000063
       ],
       [
        75.7399999999996,
        9.35328287169135
       ],
       [
        75.73792228539314,
        9.360000000000063
       ],
       [
        75.7349999999996,
        9.36216026832628
       ],
       [
        75.73153385959807,
        9.360000000000063
       ],
       [
        75.72916694659033,
        9.350000000000062
       ],
       [
        75.7399999999996,
        9.342275637884104
       ],
       [
        75.74999999999959,
        9.342459420961571
       ],
       [
        75.75222485708186,
        9.345000000000061
       ],
       [
        75.75006043731523,
        9.355000000000063
       ],
       [
        75.75499999999958,
        9.360000000000063
       ],
       [
        75.74999999999959,
        9.364364101070286
       ]
      ]
     ],
     [
      [
       [
        75.7399999999996,
        9.376240627350338
       ],
       [
        75.73838594253982,
        9.370000000000065
       ],
       [
        75.7399999999996,
        9.363546551307913
       ],
       [
        75.74232197125355,
        9.375000000000066
       ],
       [
        75.7399999999996,
        9.376240627350338
       ]
      ]
     ]
    ]
   }
  },
  {
   "type": "Feature",
   "properties": {
    "t_hours": 2,
    "hour_index": 2,
    "level": "p90",
    "valid_time_utc": "2025-06-12T08:30:00+00:00"
   },
   "geometry": {
    "type": "Polygon",
    "coordinates": [
     [
      [
       75.74999999999959,
       9.379647012765005
      ],
      [
       75.7399999999996,
       9.379745544865292
      ],
      [
       75.72234139102771,
       9.365000000000064
      ],
      [
       75.7208588175899,
       9.360000000000063
      ],
      [
       75.72897297953887,
       9.34000000000006
      ],
      [
       75.7399999999996,
       9.333746884687034
      ],
      [
       75.74499999999959,
       9.332972108371573
      ],
      [
       75.75446613273363,
       9.34000000000006
      ],
      [
       75.75903736839098,
       9.350000000000062
      ],
      [
       75.75742067337141,
       9.370000000000065
      ],
      [
       75.74999999999959,
       9.379647012765005
      ]
     ]
    ]
   }
  },
  {
   "type": "Feature",
   "properties": {
    "t_hours": 3,
    "hour_index": 3,
    "level": "p10",
    "valid_time_utc": "2025-06-12T09:30:00+00:00"
   },
   "geometry": {
    "type": "Polygon",
    "coordinates": [
     [
      [
       75.74999999999959,
       9.353521346073
      ],
      [
       75.74697050559365,
       9.350000000000062
      ],
      [
       75.74876311572633,
       9.345000000000061
      ],
      [
       75.75499999999958,
       9.344055264898984
      ],
      [
       75.74999999999959,
       9.353521346073
      ]
     ]
    ]
   }
  },
  {
   "type": "Feature",
   "properties": {
    "t_hours": 3,
    "hour_index": 3,
    "level": "p50",
    "valid_time_utc": "2025-06-12T09:30:00+00:00"
   },
   "geometry": {
    "type": "MultiPolygon",
    "coordinates": [
     [
      [
       [
        75.74499999999959,
        9.375000000000066
       ],
       [
        75.74424507526822,
        9.365000000000064
       ],
       [
        75.72928290374699,
        9.360000000000063
       ],
       [
        75.7364504078462,
        9.355000000000063
       ],
       [
        75.7399999999996,
        9.347100828241915
       ],
       [
        75.74499999999959,
        9.348701872241708
       ],
       [
        75.74999999999959,
        9.339260498845954
       ],
       [
        75.76051922352522,
        9.350000000000062
       ],
       [
        75.75410405498452,
        9.355000000000063
       ],
       [
        75.75325801059206,
        9.360000000000063
       ],
       [
        75.75878957374906,
        9.365000000000064
       ],
       [
        75.75499999999958,
        9.368208098293307
       ],
       [
        75.74999999999959,
        9.366911620238996
       ],
       [
        75.74499999999959,
        9.375000000000066
       ]
      ]
     ],
     [
      [
       [
        75.75999999999958,
        9.36368880340553
       ],
       [
        75.75784780578059,
        9.360000000000063
       ],
       [
        75.75999999999958,
        9.356840276706247
       ],
       [
        75.76143628893072,
        9.360000000000063
       ],
       [
        75.75999999999958,
        9.36368880340553
       ]
      ]
     ]
    ]
   }
  },
  {
   "type": "Feature",
   "properties": {
    "t_hours": 3,
    "hour_index": 3,
    "level": "p90",
    "valid_time_utc": "2025-06-12T09:30:00+00:00"
   },
   "geometry": {
    "type": "Polygon",
    "coordinates": [
     [
      [
       75.75499999999958,
       9.380272380149421
      ],
      [
       75.74499999999959,
       9.380695460526175
      ],
      [
       75.7399999999996,
       9.37157153348385
      ],
      [
       75.72674139507816,
       9.360000000000063
      ],
      [
       75.7349999999996,
       9.341753227209848
      ],
      [
       75.74999999999959,
       9.333701671927413
      ],
      [
       75.75499999999958,
       9.334704508375882
      ],
      [
       75.75999999999958,
       9.341039856971921
      ],
      [
       75.7675658227849,
       9.360000000000063
      ],
      [
       75.7621905170066,
       9.370000000000065
      ],
      [
       75.76286555358108,
       9.375000000000066
      ],
      [
       75.75499999999958,
       9.380272380149421
      ]
     ]
    ]
   }
  },
  {
   "type": "Feature",
   "properties": {
    "t_hours": 4,
    "hour_index": 4,
    "level": "p50",
    "valid_time_utc": "2025-06-12T10:30:00+00:00"
   },
   "geometry": {
    "type": "Polygon",
    "coordinates": [
     [
      [
       75.75999999999958,
       9.369163602911787
      ],
      [
       75.73783325864974,
       9.360000000000063
      ],
      [
       75.7399999999996,
       9.35407179573827
      ],
      [
       75.74499999999959,
       9.356050192100184
      ],
      [
       75.74999999999959,
       9.346350464083187
      ],
      [
       75.75999999999958,
       9.341413515328727
      ],
      [
       75.76654354164067,
       9.345000000000061
      ],
      [
       75.76762535012782,
       9.350000000000062
      ],
      [
       75.75999999999958,
       9.369163602911787
      ]
     ]
    ]
   }
  },
  {
   "type": "Feature",
   "properties": {
    "t_hours": 4,
    "hour_index": 4,
    "level": "p90",
    "valid_time_utc": "2025-06-12T10:30:00+00:00"
   },
   "geometry": {
    "type": "Polygon",
    "coordinates": [
     [
      [
       75.76999999999957,
       9.381665890759535
      ],
      [
       75.74999999999959,
       9.381495935624573
      ],
      [
       75.74329009355631,
       9.370000000000065
      ],
      [
       75.7349999999996,
       9.366149484105076
      ],
      [
       75.73242220097465,
       9.360000000000063
      ],
      [
       75.73697930385245,
       9.350000000000062
      ],
      [
       75.75499999999958,
       9.333190598544025
      ],
      [
       75.76972296705146,
       9.345000000000061
      ],
      [
       75.77712097172027,
       9.360000000000063
      ],
      [
       75.76999999999957,
       9.375000000000066
      ],
      [
       75.76999999999957,
       9.381665890759535
      ]
     ]
    ]
   }
  },
  {
   "type": "Feature",
   "properties": {
    "t_hours": 5,
    "hour_index": 5,
    "level": "p10",
    "valid_time_utc": "2025-06-12T11:30:00+00:00"
   },
   "geometry": {
    "type": "Polygon",
    "coordinates": [
     [
      [
       75.76499999999957,
       9.360817572323738
      ],
      [
       75.75999999999958,
       9.361610945089193
      ],
      [
       75.75521753594543,
       9.360000000000063
      ],
      [
       75.76499999999957,
       9.357231313204895
      ],
      [
       75.76499999999957,
       9.360817572323738
      ]
     ]
    ]
   }
  },
  {
   "type": "Feature",
   "properties": {
    "t_hours": 5,
    "hour_index": 5,
    "level": "p50",
    "valid_time_utc": "2025-06-12T11:30:00+00:00"
   },
   "geometry": {
    "type": "MultiPolygon",
    "coordinates": [
     [
      [
       [
        75.75499999999958,
        9.370311868660217
       ],
       [
        75.74803166019495,
        9.365000000000064
       ],
       [
        75.75120349127322,
        9.360000000000063
       ],
       [
        75.74845023431568,
        9.355000000000063
       ],
       [
        75.75499999999958,
        9.348190682594632
       ],
       [
        75.76999999999957,
        9.342538787132561
       ],
       [
        75.77274393578352,
        9.345000000000061
       ],
       [
        75.76936157120092,
        9.365000000000064
       ],
       [
        75.75499999999958,
        9.370311868660217
       ]
      ]
     ],
     [
      [
       [
        75.76499999999957,
        9.377881161848617
       ],
       [
        75.76201014268665,
        9.375000000000066
       ],
       [
        75.76499999999957,
        9.3733128062033
       ],
       [
        75.76672259313868,
        9.375000000000066
       ],
       [
        75.76499999999957,
        9.377881161848617
       ]
      ]
     ]
    ]
   }
  },
  {
   "type": "Feature",
   "properties": {
    "t_hours": 5,
    "hour_index": 5,
    "level": "p90",
    "valid_time_utc": "2025-06-12T11:30:00+00:00"
   },
   "geometry": {
    "type": "Polygon",
    "coordinates": [
     [
      [
       75.76999999999957,
       9.385664168697707
      ],
      [
       75.75499999999958,
       9.381162923281025
      ],
      [
       75.74679756514138,
       9.375000000000066
      ],
      [
       75.75011425243466,
       9.370000000000065
      ],
      [
       75.74298780948264,
       9.370000000000065
      ],
      [
       75.73930168703426,
       9.355000000000063
      ],
      [
       75.75499999999958,
       9.339179721270725
      ],
      [
       75.76017273337045,
       9.34000000000006
      ],
      [
       75.76499999999957,
       9.33238298862401
      ],
      [
       75.77778408546864,
       9.345000000000061
      ],
      [
       75.77999999999956,
       9.355794910036666
      ],
      [
       75.7865393911707,
       9.360000000000063
      ],
      [
       75.77999999999956,
       9.369282693017386
      ],
      [
       75.77800047661162,
       9.380000000000067
      ],
      [
       75.76999999999957,
       9.385664168697707
      ]
     ]
    ]
   }
  },
  {
   "type": "Feature",
   "properties": {
    "t_hours": 6,
    "hour_index": 6,
    "level": "p10",
    "valid_time_utc": "2025-06-12T12:30:00+00:00"
   },
   "geometry": {
    "type": "MultiPolygon",
    "coordinates": [
     [
      [
       [
        75.77499999999957,
        9.364983917268791
       ],
       [
        75.77177172119215,
        9.360000000000063
       ],
       [
        75.77499999999957,
        9.357369082578199
       ],
       [
        75.77604921300069,
        9.360000000000063
       ],
       [
        75.77499999999957,
        9.364983917268791
       ]
      ]
     ],
     [
      [
       [
        75.76999999999957,
        9.366012006803848
       ],
       [
        75.76999999999957,
        9.361609817148755
       ],
       [
        75.7749860787827,
        9.365000000000064
       ],
       [
        75.76999999999957,
        9.366012006803848
       ]
      ]
     ]
    ]
   }
  },
  {
   "type": "Feature",
   "properties": {
    "t_hours": 6,
    "hour_index": 6,
    "level": "p50",
    "valid_time_utc": "2025-06-12T12:30:00+00:00"
   },
   "geometry": {
    "type": "MultiPolygon",
    "coordinates": [
     [
      [
       [
        75.77499999999957,
        9.375785576641995
       ],
       [
        75.77218429336996,
        9.375000000000066
       ],
       [
        75.7744634421629,
        9.370000000000065
       ],
       [
        75.76499999999957,
        9.367396349118465
       ],
       [
        75.75999999999958,
        9.371128490846141
       ],
       [
        75.7565910640237,
        9.370000000000065
       ],
       [
        75.7585928054029,
        9.365000000000064
       ],
       [
        75.75580452171832,
        9.355000000000063
       ],
       [
        75.77499999999957,
        9.345083282914539
       ],
       [
        75.7791843982591,
        9.350000000000062
       ],
       [
        75.78045970426288,
        9.360000000000063
       ],
       [
        75.78032019867379,
        9.370000000000065
       ],
       [
        75.77499999999957,
        9.375785576641995
       ]
      ]
     ],
     [
      [
       [
        75.77999999999956,
        9.34830768087445
       ],
       [
        75.77521284887644,
        9.345000000000061
       ],
       [
        75.77999999999956,
        9.343723101814742
       ],
       [
        75.77999999999956,
        9.34830768087445
       ]
      ]
     ]
    ]
   }
  },
  {
   "type": "Feature",
   "properties": {
    "t_hours": 6,
    "hour_index": 6,
    "level": "p90",
    "valid_time_utc": "2025-06-12T12:30:00+00:00"
   },
   "geometry": {
    "type": "Polygon",
    "coordinates": [
     [
      [
       75.77999999999956,
       9.383816009069081
      ],
      [
       75.76499999999957,
       9.384183942105741
      ],
      [
       75.75999999999958,
       9.381479167785942
      ],
      [
       75.75004669101054,
       9.370000000000065
      ],
      [
       75.74634813728098,
       9.360000000000063
      ],
      [
       75.74712862711998,
       9.355000000000063
      ],
      [
       75.75499999999958,
       9.346787711616724
      ],
      [
       75.76106391267302,
       9.345000000000061
      ],
      [
       75.76102649681616,
       9.34000000000006
      ],
      [
       75.76999999999957,
       9.333906117826878
      ],
      [
       75.7863182421569,
       9.345000000000061
      ],
      [
       75.78499999999956,
       9.355788101609823
      ],
      [
       75.79515155067533,
       9.360000000000063
      ],
      [
       75.78999999999955,
       9.362526392611324
      ],
      [
       75.78735316004395,
       9.375000000000066
      ],
      [
       75.77999999999956,
       9.383816009069081
      ]
     ]
    ]
   }
  },
  {
   "type": "Feature",
   "properties": {
    "t_hours": 7,
    "hour_index": 7,
    "level": "p10",
    "valid_time_utc": "2025-06-12T13:30:00+00:00"
   },
   "geometry": {
    "type": "MultiPolygon",
    "coordinates": [
     [
      [
       [
        75.77999999999956,
        9.36926594790364
       ],
       [
        75.77499999999957,
        9.365000000000064
       ],
       [
        75.77999999999956,
        9.36081157926293
       ],
       [
        75.78235062781536,
        9.365000000000064
       ],
       [
        75.77999999999956,
        9.36926594790364
       ]
      ]
     ],
     [
      [
       [
        75.76999999999957,
        9.362029964710464
       ],
       [
        75.76794835364636,
        9.360000000000063
       ],
       [
        75.76999999999957,
        9.35626444492562
       ],
       [
        75.7727544857985,
        9.360000000000063
       ],
       [
        75.76999999999957,
        9.362029964710464
       ]
      ]
     ]
    ]
   }
  },
  {
   "type": "Feature",
   "properties": {
    "t_hours": 7,
    "hour_index": 7,
    "level": "p50",
    "valid_time_utc": "2025-06-12T13:30:00+00:00"
   },
   "geometry": {
    "type": "MultiPolygon",
    "coordinates": [
     [
      [
       [
        75.77499999999957,
        9.381256273283423
       ],
       [
        75.77104046596511,
        9.375000000000066
       ],
       [
        75.77068415395937,
        9.365000000000064
       ],
       [
        75.7624585091412,
        9.355000000000063
       ],
       [
        75.76999999999957,
        9.349365581092512
       ],
       [
        75.78783661946348,
        9.345000000000061
       ],
       [
        75.78493179312662,
        9.355000000000063
       ],
       [
        75.79080911038922,
        9.365000000000064
       ],
       [
        75.7902777019659,
        9.370000000000065
       ],
       [
        75.78499999999956,
        9.367451107534158
       ],
       [
        75.77499999999957,
        9.381256273283423
       ]
      ]
     ],
     [
      [
       [
        75.76499999999957,
        9.369427603058282
       ],
       [
        75.76340234790845,
        9.365000000000064
       ],
       [
        75.76499999999957,
        9.361351637779066
       ],
       [
        75.76850668731326,
        9.365000000000064
       ],
       [
        75.76499999999957,
        9.369427603058282
       ]
      ]
     ]
    ]
   }
  },
  {
   "type": "Feature",
   "properties": {
    "t_hours": 8,
    "hour_index": 8,
    "level": "p10",
    "valid_time_utc": "2025-06-12T14:30:00+00:00"
   },
   "geometry": {
    "type": "MultiPolygon",
    "coordinates": [
     [
      [
       [
        75.77999999999956,
        9.364113878636962
       ],
       [
        75.77624657847798,
        9.360000000000063
       ],
       [
        75.77999999999956,
        9.356102077901047
       ],
       [
        75.78499999999956,
        9.360000000000063
       ],
       [
        75.77999999999956,
        9.364113878636962
       ]
      ]
     ],
     [
      [
       [
        75.78499999999956,
        9.367360969288235
       ],
       [
        75.78165659018586,
        9.365000000000064
       ],
       [
        75.78499999999956,
        9.360000000000063
       ],
       [
        75.78935187505773,
        9.365000000000064
       ],
       [
        75.78499999999956,
        9.367360969288235
       ]
      ]
     ]
    ]
   }
  },
  {
   "type": "Feature",
   "properties": {
    "t_hours": 8,
    "hour_index": 8,
    "level": "p50",
    "valid_time_utc": "2025-06-12T14:30:00+00:00"
   },
   "geometry": {
    "type": "MultiPolygon",
    "coordinates": [
     [
      [
       [
        75.79499999999955,
        9.371782099245086
       ],
       [
        75.78999999999955,
        9.374378433490014
       ],
       [
        75.76758156152532,
        9.360000000000063
       ],
       [
        75.77999999999956,
        9.347086731315871
       ],
       [
        75.78499999999956,
        9.348824446796877
       ],
       [
        75.78999999999955,
        9.34428814791969
       ],
       [
        75.79499999999955,
        9.344480232816194
       ],
       [
        75.79081244642245,
        9.355000000000063
       ],
       [
        75.79101478144773,
        9.360000000000063
       ],
       [
        75.79670715419238,
        9.365000000000064
       ],
       [
        75.79499999999955,
        9.371782099245086
       ]
      ]
     ],
     [
      [
       [
        75.77499999999957,
        9.377899416165894
       ],
       [
        75.77168653437195,
        9.370000000000065
       ],
       [
        75.77499999999957,
        9.366585593109948
       ],
       [
        75.77994862848792,
        9.370000000000065
       ],
       [
        75.77999999999956,
        9.375000000000066
       ],
       [
        75.77499999999957,
        9.377899416165894
       ]
      ]
     ]
    ]
   }
  },
  {
   "type": "Feature",
   "properties": {
    "t_hours": 8,
    "hour_index": 8,
    "level": "p90",
    "valid_time_utc": "2025-06-12T14:30:00+00:00"
   },
   "geometry": {
    "type": "Polygon",
    "coordinates": [
     [
      [
       75.79499999999955,
       9.385533421823071
      ],
      [
       75.78999999999955,
       9.38830282569982
      ],
      [
       75.77499999999957,
       9.383202091093931
      ],
      [
       75.76999999999957,
       9.37357449469653
      ],
      [
       75.75834521282613,
       9.365000000000064
      ],
      [
       75.76252989440238,
       9.360000000000063
      ],
      [
       75.7614336778101,
       9.355000000000063
      ],
      [
       75.7698554121431,
       9.345000000000061
      ],
      [
       75.77942656368572,
       9.34000000000006
      ],
      [
       75.77999999999956,
       9.33500000000006
      ],
      [
       75.79499999999955,
       9.340080833367647
      ],
      [
       75.80686788443931,
       9.360000000000063
      ],
      [
       75.79499999999955,
       9.385533421823071
      ]
     ]
    ]
   }
  },
  {
   "type": "Feature",
   "properties": {
    "t_hours": 9,
    "hour_index": 9,
    "level": "p10",
    "valid_time_utc": "2025-06-12T15:30:00+00:00"
   },
   "geometry": {
    "type": "Polygon",
    "coordinates": [
     [
      [
       75.78499999999956,
       9.362629047102539
      ],
      [
       75.78154241784422,
       9.360000000000063
      ],
      [
       75.78499999999956,
       9.352842496483609
      ],
      [
       75.78923176942492,
       9.360000000000063
      ],
      [
       75.78499999999956,
       9.362629047102539
      ]
     ]
    ]
   }
  },
  {
   "type": "Feature",
   "properties": {
    "t_hours": 9,
    "hour_index": 9,
    "level": "p90",
    "valid_time_utc": "2025-06-12T15:30:00+00:00"
   },
   "geometry": {
    "type": "Polygon",
    "coordinates": [
     [
      [
       75.79999999999954,
       9.385557495468458
      ],
      [
       75.78999999999955,
       9.386724637558368
      ],
      [
       75.77999999999956,
       9.382665142554464
      ],
      [
       75.76492719621872,
       9.365000000000064
      ],
      [
       75.77446569191592,
       9.345000000000061
      ],
      [
       75.78999999999955,
       9.332175882680794
      ],
      [
       75.8029960029754,
       9.34000000000006
      ],
      [
       75.81085589184207,
       9.365000000000064
      ],
      [
       75.80814216456395,
       9.370000000000065
      ],
      [
       75.81191693017675,
       9.375000000000066
      ],
      [
       75.79999999999954,
       9.385557495468458
      ]
     ]
    ]
   }
  },
  {
   "type": "Feature",
   "properties": {
    "t_hours": 10,
    "hour_index": 10,
    "level": "p10",
    "valid_time_utc": "2025-06-12T16:30:00+00:00"
   },
   "geometry": {
    "type": "Polygon",
    "coordinates": [
     [
      [
       75.79499999999955,
       9.360000000000063
      ],
      [
       75.78473905827803,
       9.360000000000063
      ],
      [
       75.78999999999955,
       9.35468572822345
      ],
      [
       75.79499999999955,
       9.360000000000063
      ]
     ]
    ]
   }
  },
  {
   "type": "Feature",
   "properties": {
    "t_hours": 10,
    "hour_index": 10,
    "level": "p50",
    "valid_time_utc": "2025-06-12T16:30:00+00:00"
   },
   "geometry": {
    "type": "MultiPolygon",
    "coordinates": [
     [
      [
       [
        75.78999999999955,
        9.380488927064778
       ],
       [
        75.78351271318414,
        9.375000000000066
       ],
       [
        75.78055527620606,
        9.360000000000063
       ],
       [
        75.78999999999955,
        9.346727244747589
       ],
       [
        75.7953437444899,
        9.355000000000063
       ],
       [
        75.79999999999954,
        9.34087344823513
       ],
       [
        75.80467633309514,
        9.345000000000061
       ],
       [
        75.80879905784802,
        9.365000000000064
       ],
       [
        75.80499999999954,
        9.373718984271743
       ],
       [
        75.79999999999954,
        9.375000000000066
       ],
       [
        75.79710240980003,
        9.370000000000065
       ],
       [
        75.79999999999954,
        9.364337491650362
       ],
       [
        75.79312101336716,
        9.370000000000065
       ],
       [
        75.78999999999955,
        9.380488927064778
       ]
      ]
     ],
     [
      [
       [
        75.79999999999954,
        9.382736755725253
       ],
       [
        75.79654327659665,
        9.380000000000067
       ],
       [
        75.79999999999954,
        9.375000000000066
       ],
       [
        75.80368040236011,
        9.380000000000067
       ],
       [
        75.79999999999954,
        9.382736755725253
       ]
      ]
     ]
    ]
   }
  },
  {
   "type": "Feature",
   "properties": {
    "t_hours": 10,
    "hour_index": 10,
    "level": "p90",
    "valid_time_utc": "2025-06-12T16:30:00+00:00"
   },
   "geometry": {
    "type": "Polygon",
    "coordinates": [
     [
      [
       75.79999999999954,
       9.387481009945327
      ],
      [
       75.78499999999956,
       9.382325307192902
      ],
      [
       75.77224894962421,
       9.370000000000065
      ],
      [
       75.7764289691201,
       9.360000000000063
      ],
      [
       75.76962097947937,
       9.350000000000062
      ],
      [
       75.79999999999954,
       9.332637025743253
      ],
      [
       75.81183509506666,
       9.34000000000006
      ],
      [
       75.81015723215411,
       9.355000000000063
      ],
      [
       75.81953641558867,
       9.360000000000063
      ],
      [
       75.81248360857957,
       9.370000000000065
      ],
      [
       75.81823057766844,
       9.375000000000066
      ],
      [
       75.79999999999954,
       9.387481009945327
      ]
     ]
    ]
   }
  },
  {
   "type": "Feature",
   "properties": {
    "t_hours": 11,
    "hour_index": 11,
    "level": "p10",
    "valid_time_utc": "2025-06-12T17:30:00+00:00"
   },
   "geometry": {
    "type": "Polygon",
    "coordinates": [
     [
      [
       75.8077210578743,
       9.360000000000063
      ],
      [
       75.79999999999954,
       9.360098088813878
      ],
      [
       75.79499999999955,
       9.363090637681008
      ],
      [
       75.78999999999955,
       9.360000000000063
      ],
      [
       75.79499999999955,
       9.356427067267765
      ],
      [
       75.8077210578743,
       9.360000000000063
      ]
     ]
    ]
   }
  },
  {
   "type": "Feature",
   "properties": {
    "t_hours": 11,
    "hour_index": 11,
    "level": "p50",
    "valid_time_utc": "2025-06-12T17:30:00+00:00"
   },
   "geometry": {
    "type": "Polygon",
    "coordinates": [
     [
      [
       75.79999999999954,
       9.375595434391991
      ],
      [
       75.79499999999955,
       9.378615937050444
      ],
      [
       75.78999999999955,
       9.375000000000066
      ],
      [
       75.78373968242686,
       9.355000000000063
      ],
      [
       75.78999999999955,
       9.354004496836646
      ],
      [
       75.7920612288681,
       9.350000000000062
      ],
      [
       75.78999999999955,
       9.344504273375817
      ],
      [
       75.7989703086864,
       9.345000000000061
      ],
      [
       75.79999999999954,
       9.350403253635097
      ],
      [
       75.80499999999954,
       9.346717912779614
      ],
      [
       75.81340359886252,
       9.360000000000063
      ],
      [
       75.80973395273493,
       9.370000000000065
      ],
      [
       75.80499999999954,
       9.37294369348738
      ],
      [
       75.79999999999954,
       9.367309810920009
      ],
      [
       75.79999999999954,
       9.375595434391991
      ]
     ]
    ]
   }
  },
  {
   "type": "Feature",
   "properties": {
    "t_hours": 11,
    "hour_index": 11,
    "level": "p90",
    "valid_time_utc": "2025-06-12T17:30:00+00:00"
   },
   "geometry": {
    "type": "Polygon",
    "coordinates": [
     [
      [
       75.80499999999954,
       9.385324701715751
      ],
      [
       75.79499999999955,
       9.384480658437939
      ],
      [
       75.78499999999956,
       9.378445549333422
      ],
      [
       75.77831249813238,
       9.365000000000064
      ],
      [
       75.78060947570697,
       9.360000000000063
      ],
      [
       75.77757154974061,
       9.350000000000062
      ],
      [
       75.78999999999955,
       9.338808139117258
      ],
      [
       75.79499999999955,
       9.34000000000006
      ],
      [
       75.79442590052791,
       9.33500000000006
      ],
      [
       75.79999999999954,
       9.33071196028546
      ],
      [
       75.81710650501347,
       9.33500000000006
      ],
      [
       75.81674746644147,
       9.350000000000062
      ],
      [
       75.8231562131026,
       9.360000000000063
      ],
      [
       75.81999999999952,
       9.379942480958569
      ],
      [
       75.80499999999954,
       9.385324701715751
      ]
     ]
    ]
   }
  },
  {
   "type": "Feature",
   "properties": {
    "t_hours": 12,
    "hour_index": 12,
    "level": "p50",
    "valid_time_utc": "2025-06-12T18:30:00+00:00"
   },
   "geometry": {
    "type": "MultiPolygon",
    "coordinates": [
     [
      [
       [
        75.79999999999954,
        9.377671325232479
       ],
       [
        75.79272685712418,
        9.375000000000066
       ],
       [
        75.79415923283965,
        9.365000000000064
       ],
       [
        75.79104950985487,
        9.360000000000063
       ],
       [
        75.7915416410136,
        9.355000000000063
       ],
       [
        75.79677288608899,
        9.350000000000062
       ],
       [
        75.7963525894,
        9.345000000000061
       ],
       [
        75.79999999999954,
        9.343564203333278
       ],
       [
        75.80499999999954,
        9.349295072094165
       ],
       [
        75.81499999999953,
        9.346724420616095
       ],
       [
        75.81720942279054,
        9.365000000000064
       ],
       [
        75.81499999999953,
        9.370000000000065
       ],
       [
        75.80999999999953,
        9.36437121621028
       ],
       [
        75.80566622539857,
        9.365000000000064
       ],
       [
        75.80838032662673,
        9.370000000000065
       ],
       [
        75.79999999999954,
        9.377671325232479
       ]
      ]
     ],
     [
      [
       [
        75.81145784854786,
        9.34000000000006
       ],
       [
        75.80781566471728,
        9.34000000000006
       ],
       [
        75.80999999999953,
        9.334165847003815
       ],
       [
        75.81145784854786,
        9.34000000000006
       ]
      ]
     ]
    ]
   }
  },
  {
   "type": "Feature",
   "properties": {
    "t_hours": 12,
    "hour_index": 12,
    "level": "p90",
    "valid_time_utc": "2025-06-12T18:30:00+00:00"
   },
   "geometry": {
    "type": "MultiPolygon",
    "coordinates": [
     [
      [
       [
        75.80999999999953,
        9.386260848163554
       ],
       [
        75.78767801910513,
        9.375000000000066
       ],
       [
        75.7837810683062,
        9.370000000000065
       ],
       [
        75.78078602311005,
        9.350000000000062
       ],
       [
        75.78999999999955,
        9.338702227866289
       ],
       [
        75.80999999999953,
        9.32955717412814
       ],
       [
        75.8222580188442,
        9.33500000000006
       ],
       [
        75.81860136278165,
        9.345000000000061
       ],
       [
        75.82784256848086,
        9.365000000000064
       ],
       [
        75.8255163974561,
        9.380000000000067
       ],
       [
        75.80999999999953,
        9.386260848163554
       ]
      ]
     ],
     [
      [
       [
        75.82999999999952,
        9.356898746708117
       ],
       [
        75.82588028166394,
        9.355000000000063
       ],
       [
        75.82999999999952,
        9.353540495588279
       ],
       [
        75.82999999999952,
        9.356898746708117
       ]
      ]
     ]
    ]
   }
  },
  {
   "type": "Feature",
   "properties": {
    "kind": "centroid_track",
    "direction": "forecast"
   },
   "geometry": {
    "type": "LineString",
    "coordinates": [
     [
      75.72957,
      9.35661
     ],
     [
      75.73535,
      9.35634
     ],
     [
      75.74154,
      9.35658
     ],
     [
      75.74829,
      9.35719
     ],
     [
      75.75554,
      9.35821
     ],
     [
      75.76277,
      9.35946
     ],
     [
      75.77001,
      9.36072
     ],
     [
      75.77708,
      9.36161
     ],
     [
      75.78366,
      9.36191
     ],
     [
      75.78972,
      9.36158
     ],
     [
      75.79517,
      9.36098
     ],
     [
      75.80038,
      9.35996
     ],
     [
      75.80547,
      9.35875
     ]
    ]
   }
  }
 ]
}