{
 "type": "FeatureCollection",
 "features": [
  {
   "type": "Feature",
   "properties": {
    "reason": "wind_outside_3_12_ms",
    "detectability": "low"
   },
   "geometry": {
    "type": "Polygon",
    "coordinates": [
     [
      [
       76.385,
       9.07
      ],
      [
       76.385,
       9.065
      ],
      [
       76.345,
       9.065
      ],
      [
       76.345,
       9.06
      ],
      [
       76.30499999999999,
       9.06
      ],
      [
       76.30499999999999,
       9.055
      ],
      [
       76.27,
       9.055
      ],
      [
       76.27,
       9.05
      ],
      [
       76.245,
       9.05
      ],
      [
       76.245,
       9.045
      ],
      [
       76.22,
       9.045
      ],
      [
       76.22,
       9.04
      ],
      [
       76.2,
       9.04
      ],
      [
       76.2,
       9.035
      ],
      [
       76.17999999999999,
       9.035
      ],
      [
       76.17999999999999,
       9.03
      ],
      [
       76.16,
       9.03
      ],
      [
       76.16,
       9.025
      ],
      [
       76.15,
       9.025
      ],
      [
       76.15,
       9.02
      ],
      [
       76.145,
       9.02
      ],
      [
       76.145,
       9.015
      ],
      [
       76.14,
       9.015
      ],
      [
       76.14,
       9.004999999999999
      ],
      [
       76.135,
       9.004999999999999
      ],
      [
       76.135,
       9.0
      ],
      [
       76.13,
       9.0
      ],
      [
       76.13,
       8.99
      ],
      [
       76.125,
       8.99
      ],
      [
       76.125,
       8.985
      ],
      [
       76.12,
       8.985
      ],
      [
       76.12,
       8.975
      ],
      [
       76.115,
       8.975
      ],
      [
       76.115,
       8.97
      ],
      [
       76.11,
       8.97
      ],
      [
       76.11,
       8.96
      ],
      [
       76.105,
       8.96
      ],
      [
       76.105,
       8.955
      ],
      [
       76.1,
       8.955
      ],
      [
       76.1,
       8.945
      ],
      [
       76.095,
       8.945
      ],
      [
       76.095,
       8.935
      ],
      [
       76.09,
       8.935
      ],
      [
       76.09,
       8.925
      ],
      [
       76.085,
       8.925
      ],
      [
       76.085,
       8.92
      ],
      [
       76.08,
       8.92
      ],
      [
       76.08,
       8.91
      ],
      [
       76.075,
       8.91
      ],
      [
       76.075,
       8.9
      ],
      [
       76.07,
       8.9
      ],
      [
       76.07,
       8.89
      ],
      [
       76.065,
       8.89
      ],
      [
       76.065,
       8.879999999999999
      ],
      [
       76.06,
       8.879999999999999
      ],
      [
       76.06,
       8.87
      ],
      [
       76.05499999999999,
       8.87
      ],
      [
       76.05499999999999,
       8.86
      ],
      [
       76.05,
       8.86
      ],
      [
       76.05,
       8.85
      ],
      [
       76.045,
       8.85
      ],
      [
       76.045,
       8.84
      ],
      [
       76.03999999999999,
       8.84
      ],
      [
       76.03999999999999,
       8.83
      ],
      [
       76.035,
       8.83
      ],
      [
       76.035,
       8.82
      ],
      [
       76.03,
       8.82
      ],
      [
       76.03,
       8.81
      ],
      [
       76.025,
       8.81
      ],
      [
       76.025,
       8.785
      ],
      [
       76.03,
       8.785
      ],
      [
       76.03,
       8.77
      ],
      [
       76.035,
       8.77
      ],
      [
       76.035,
       8.754999999999999
      ],
      [
       76.03999999999999,
       8.754999999999999
      ],
      [
       76.03999999999999,
       8.735
      ],
      [
       76.045,
       8.735
      ],
      [
       76.045,
       8.72
      ],
      [
       76.05,
       8.72
      ],
      [
       76.05,
       8.705
      ],
      [
       76.05499999999999,
       8.705
      ],
      [
       76.05499999999999,
       8.69
      ],
      [
       76.06,
       8.69
      ],
      [
       76.06,
       8.675
      ],
      [
       76.065,
       8.675
      ],
      [
       76.065,
       8.66
      ],
      [
       76.07,
       8.66
      ],
      [
       76.07,
       8.65
      ],
      [
       76.075,
       8.65
      ],
      [
       76.075,
       8.635
      ],
      [
       76.08,
       8.635
      ],
      [
       76.08,
       8.62
      ],
      [
       76.085,
       8.62
      ],
      [
       76.085,
       8.61
      ],
      [
       76.09,
       8.61
      ],
      [
       76.09,
       8.595
      ],
      [
       76.095,
       8.595
      ],
      [
       76.095,
       8.585
      ],
      [
       76.1,
       8.585
      ],
      [
       76.1,
       8.575
      ],
      [
       76.105,
       8.575
      ],
      [
       76.105,
       8.56
      ],
      [
       76.11,
       8.56
      ],
      [
       76.11,
       8.55
      ],
      [
       76.115,
       8.55
      ],
      [
       76.115,
       8.545
      ],
      [
       76.12,
       8.545
      ],
      [
       76.12,
       8.54
      ],
      [
       76.125,
       8.54
      ],
      [
       76.125,
       8.535
      ],
      [
       76.13,
       8.535
      ],
      [
       76.13,
       8.53
      ],
      [
       76.135,
       8.53
      ],
      [
       76.135,
       8.525
      ],
      [
       76.14,
       8.525
      ],
      [
       76.14,
       8.52
      ],
      [
       76.145,
       8.52
      ],
      [
       76.145,
       8.515
      ],
      [
       76.16,
       8.515
      ],
      [
       76.16,
       8.51
      ],
      [
       76.19,
       8.51
      ],
      [
       76.19,
       8.504999999999999
      ],
      [
       76.22,
       8.504999999999999
      ],
      [
       76.22,
       8.5
      ],
      [
       76.44,
       8.5
      ],
      [
       76.44,
       8.504999999999999
      ],
      [
       76.45,
       8.504999999999999
      ],
      [
       76.45,
       8.51
      ],
      [
       76.455,
       8.51
      ],
      [
       76.455,
       8.515
      ],
      [
       76.465,
       8.515
      ],
      [
       76.465,
       8.52
      ],
      [
       76.47,
       8.52
      ],
      [
       76.47,
       8.525
      ],
      [
       76.475,
       8.525
      ],
      [
       76.475,
       8.53
      ],
      [
       76.48,
       8.53
      ],
      [
       76.48,
       8.535
      ],
      [
       76.485,
       8.535
      ],
      [
       76.485,
       8.54
      ],
      [
       76.495,
       8.54
      ],
      [
       76.495,
       8.545
      ],
      [
       76.5,
       8.545
      ],
      [
       76.5,
       8.55
      ],
      [
       76.505,
       8.55
      ],
      [
       76.505,
       8.56
      ],
      [
       76.51,
       8.56
      ],
      [
       76.51,
       8.57
      ],
      [
       76.515,
       8.57
      ],
      [
       76.515,
       8.58
      ],
      [
       76.52,
       8.58
      ],
      [
       76.52,
       8.59
      ],
      [
       76.52499999999999,
       8.59
      ],
      [
       76.52499999999999,
       8.6
      ],
      [
       76.53,
       8.6
      ],
      [
       76.53,
       8.61
      ],
      [
       76.535,
       8.61
      ],
      [
       76.535,
       8.625
      ],
      [
       76.53999999999999,
       8.625
      ],
      [
       76.53999999999999,
       8.635
      ],
      [
       76.545,
       8.635
      ],
      [
       76.545,
       8.645
      ],
      [
       76.55,
       8.645
      ],
      [
       76.55,
       8.66
      ],
      [
       76.55499999999999,
       8.66
      ],
      [
       76.55499999999999,
       8.67
      ],
      [
       76.56,
       8.67
      ],
      [
       76.56,
       8.685
      ],
      [
       76.565,
       8.685
      ],
      [
       76.565,
       8.695
      ],
      [
       76.57,
       8.695
      ],
      [
       76.57,
       8.71
      ],
      [
       76.575,
       8.71
      ],
      [
       76.575,
       8.725
      ],
      [
       76.58,
       8.725
      ],
      [
       76.58,
       8.74
      ],
      [
       76.585,
       8.74
      ],
      [
       76.585,
       8.754999999999999
      ],
      [
       76.59,
       8.754999999999999
      ],
      [
       76.59,
       8.77
      ],
      [
       76.595,
       8.77
      ],
      [
       76.595,
       8.785
      ],
      [
       76.6,
       8.785
      ],
      [
       76.6,
       8.81
      ],
      [
       76.595,
       8.81
      ],
      [
       76.595,
       8.82
      ],
      [
       76.59,
       8.82
      ],
      [
       76.59,
       8.83
      ],
      [
       76.585,
       8.83
      ],
      [
       76.585,
       8.835
      ],
      [
       76.58,
       8.835
      ],
      [
       76.58,
       8.845
      ],
      [
       76.575,
       8.845
      ],
      [
       76.575,
       8.855
      ],
      [
       76.57,
       8.855
      ],
      [
       76.57,
       8.86
      ],
      [
       76.565,
       8.86
      ],
      [
       76.565,
       8.87
      ],
      [
       76.56,
       8.87
      ],
      [
       76.56,
       8.879999999999999
      ],
      [
       76.55499999999999,
       8.879999999999999
      ],
      [
       76.55499999999999,
       8.885
      ],
      [
       76.55,
       8.885
      ],
      [
       76.55,
       8.895
      ],
      [
       76.545,
       8.895
      ],
      [
       76.545,
       8.9
      ],
      [
       76.53999999999999,
       8.9
      ],
      [
       76.53999999999999,
       8.91
      ],
      [
       76.535,
       8.91
      ],
      [
       76.535,
       8.915
      ],
      [
       76.53,
       8.915
      ],
      [
       76.53,
       8.925
      ],
      [
       76.52499999999999,
       8.925
      ],
      [
       76.52499999999999,
       8.93
      ],
      [
       76.52,
       8.93
      ],
      [
       76.52,
       8.94
      ],
      [
       76.515,
       8.94
      ],
      [
       76.515,
       8.945
      ],
      [
       76.51,
       8.945
      ],
      [
       76.51,
       8.955
      ],
      [
       76.505,
       8.955
      ],
      [
       76.505,
       8.96
      ],
      [
       76.5,
       8.96
      ],
      [
       76.5,
       8.965
      ],
      [
       76.495,
       8.965
      ],
      [
       76.495,
       8.975
      ],
      [
       76.49,
       8.975
      ],
      [
       76.49,
       8.98
      ],
      [
       76.485,
       8.98
      ],
      [
       76.485,
       8.985
      ],
      [
       76.48,
       8.985
      ],
      [
       76.48,
       8.995
      ],
      [
       76.475,
       8.995
      ],
      [
       76.475,
       9.0
      ],
      [
       76.47,
       9.0
      ],
      [
       76.47,
       9.004999999999999
      ],
      [
       76.465,
       9.004999999999999
      ],
      [
       76.465,
       9.01
      ],
      [
       76.46,
       9.01
      ],
      [
       76.46,
       9.015
      ],
      [
       76.455,
       9.015
      ],
      [
       76.455,
       9.025
      ],
      [
       76.45,
       9.025
      ],
      [
       76.45,
       9.03
      ],
      [
       76.445,
       9.03
      ],
      [
       76.445,
       9.035
      ],
      [
       76.44,
       9.035
      ],
      [
       76.44,
       9.04
      ],
      [
       76.435,
       9.04
      ],
      [
       76.435,
       9.045
      ],
      [
       76.42999999999999,
       9.045
      ],
      [
       76.42999999999999,
       9.05
      ],
      [
       76.425,
       9.05
      ],
      [
       76.425,
       9.055
      ],
      [
       76.42,
       9.055
      ],
      [
       76.42,
       9.06
      ],
      [
       76.41,
       9.06
      ],
      [
       76.41,
       9.065
      ],
      [
       76.405,
       9.065
      ],
      [
       76.405,
       9.07
      ],
      [
       76.385,
       9.07
      ]
     ]
    ]
   }
  }
 ]
}