{
 "type": "FeatureCollection",
 "features": [
  {
   "type": "Feature",
   "properties": {
    "object_id": "SAR-OBJ-01",
    "class": "oil_confirmed",
    "confidence": 0.77,
    "area_km2": 11.0,
    "contrast_db": 2.48,
    "elongation": 1.17,
    "wind_ms": 7.2,
    "centroid": [
     75.72795,
     9.35669
    ]
   },
   "geometry": {
    "type": "Polygon",
    "coordinates": [
     [
      [
       75.73,
       9.379999999999999
      ],
      [
       75.73,
       9.375
      ],
      [
       75.72,
       9.375
      ],
      [
       75.72,
       9.37
      ],
      [
       75.715,
       9.37
      ],
      [
       75.715,
       9.365
      ],
      [
       75.71,
       9.365
      ],
      [
       75.71,
       9.35
      ],
      [
       75.715,
       9.35
      ],
      [
       75.715,
       9.345
      ],
      [
       75.72,
       9.345
      ],
      [
       75.72,
       9.34
      ],
      [
       75.725,
       9.34
      ],
      [
       75.725,
       9.335
      ],
      [
       75.735,
       9.335
      ],
      [
       75.735,
       9.34
      ],
      [
       75.74,
       9.34
      ],
      [
       75.74,
       9.345
      ],
      [
       75.745,
       9.345
      ],
      [
       75.745,
       9.37
      ],
      [
       75.74,
       9.37
      ],
      [
       75.74,
       9.375
      ],
      [
       75.735,
       9.375
      ],
      [
       75.735,
       9.379999999999999
      ],
      [
       75.73,
       9.379999999999999
      ]
     ]
    ]
   }
  },
  {
   "type": "Feature",
   "properties": {
    "object_id": "SAR-OBJ-02",
    "class": "look_alike",
    "confidence": 0.35,
    "area_km2": 29.8,
    "contrast_db": 1.86,
    "elongation": 1.63,
    "wind_ms": 1.7,
    "centroid": [
     76.30068,
     8.80328
    ]
   },
   "geometry": {
    "type": "Polygon",
    "coordinates": [
     [
      [
       76.28,
       8.83
      ],
      [
       76.28,
       8.825
      ],
      [
       76.275,
       8.825
      ],
      [
       76.275,
       8.82
      ],
      [
       76.27,
       8.82
      ],
      [
       76.27,
       8.81
      ],
      [
       76.265,
       8.81
      ],
      [
       76.265,
       8.805
      ],
      [
       76.26,
       8.805
      ],
      [
       76.26,
       8.795
      ],
      [
       76.265,
       8.795
      ],
      [
       76.265,
       8.79
      ],
      [
       76.27,
       8.79
      ],
      [
       76.27,
       8.785
      ],
      [
       76.275,
       8.785
      ],
      [
       76.275,
       8.78
      ],
      [
       76.28999999999999,
       8.78
      ],
      [
       76.28999999999999,
       8.785
      ],
      [
       76.33,
       8.785
      ],
      [
       76.33,
       8.79
      ],
      [
       76.335,
       8.79
      ],
      [
       76.335,
       8.795
      ],
      [
       76.34,
       8.795
      ],
      [
       76.34,
       8.8
      ],
      [
       76.345,
       8.8
      ],
      [
       76.345,
       8.805
      ],
      [
       76.34,
       8.805
      ],
      [
       76.34,
       8.81
      ],
      [
       76.335,
       8.81
      ],
      [
       76.335,
       8.815
      ],
      [
       76.33,
       8.815
      ],
      [
       76.33,
       8.82
      ],
      [
       76.325,
       8.82
      ],
      [
       76.325,
       8.825
      ],
      [
       76.315,
       8.825
      ],
      [
       76.315,
       8.83
      ],
      [
       76.28,
       8.83
      ]
     ]
    ]
   }
  }
 ]
}